original_address,lat,lon,formatted,postcode,county
Helleland/Bjerkreim,58.53333,6.08333,"Eigersund (Helleland), Rogaland",,
1281 Oslo,59.845277593,10.82835194,1281 Oslo,1281,
1322 Høvik,59.2415191,11.4806807,Høvik (Høvik),,Østfold
1324 Lysaker,60.8694792,11.2197143,"Lysaker, Hamar",,Innlandet
1400 Ski,59.7211230246,10.8514077591,1400 Nordre Follo,1400,Akershus
1430 Ås,59.65580869,10.787906972,1430 Ås,1430,Akershus
1472 Fjellhamar,59.938560053,10.992152425,1472 Lørenskog,1472,Akershus
1487 Tøyenhagen,60.1164855822,10.8574697913,1487 Nittedal,1487,Akershus
1523 Moss,59.423826949,10.67774108,1523 Moss,1523,Østfold
1550 Hølen,59.5399008,10.7423942,1550 Hølen (Hølen),1550,Akershus
1560 Larkollen,59.330383,10.6702747,1560 Larkollen (Larkollen),1560,Østfold
1600 Fredrikstad,59.2133614,10.9361604,Fredrikstad,,Østfold
1640 Moss v/Spareland,,,,,
1700 Sarpsborg,59.254955,11.2297811408,Sarpsborg,,Østfold
1715 Yven,59.2797972,11.064825,"Yven, 1715 Sarpsborg",1715,Østfold
1720 Greåker,59.2677028,11.466025,Greåker (Greåker),,Østfold
1816 Skiptvet,59.47112895,11.1517979251,1816 Skiptvet,1816,Østfold
1825 Tomter,59.6608561,10.9995635,1825 Tomter (Tomter),1825,Østfold
1900 Fetsund,59.9274398,11.1620196,1900 Fetsund (Fetsund),1900,Akershus
1911 Flateby,59.8292738,11.153367,1911 Flateby (Flateby),1911,Akershus
1928 Haga,60.4328236,11.5803413,"Tonerroa, 2133 Toner",2133,Innlandet
1932 Finstadbru,59.9409783,11.4324201,"Finstadbru, 1930 Aurskog-Høland",1930,Akershus
1950 Rømskog,59.7492558,11.8128562,1950 Rømskog (Rømskog),1950,Akershus
1954 Setskog,59.828227,11.7200839,1954 Setskog (Setskog),1954,Akershus
1960 Løken,59.7956824,11.4657623,1960 Løken (Løken),1960,Akershus
1990 Skjetten,59.97185,11.00693,"Lillestrøm (Skjetten), Viken",,
2 km. nord for Bodø.,,,,,
2000 Lillestrøm,59.95571498,11.05995671,2000 Lillestrøm,2000,Akershus
2006 Løvenstad,59.936959,11.026377,"Løvenstad, 2006 Rælingen",2006,Akershus
2007 Kjeller,59.9738693,11.0475937,2007 Kjeller (Kjeller),2007,Akershus
2008 Fjerdingby,59.921804,11.0738113,2008 Fjerdingby (Fjerdingby),2008,Akershus
2009 Nordby,59.8674612,11.09335,2009 Nordby (Fjellstad),2009,Akershus
2010 Strømmen,59.9484445,11.0100743,2010 Strømmen (Strømmen),2010,Akershus
2020 Skedsmokorset,60.0045847,11.0327923,2020 Skedsmokorset (Skedsmokorset),2020,Akershus
2022 Gjerdrum,60.0787767,11.0206122579,2022 Gjerdrum,2022,Akershus
2033 Åsgreina,60.1709688,10.9910233,2033 Åsgreina (Åsgreina),2033,Akershus
2045 Leirsund,59.9999567,11.0870456,"Leirsund, Sundstuveien, 2015 Leirsund",2015,Akershus
2060 Gardermoen,60.1931149,11.0616782,2060 Garder (Garder),2060,Akershus
2070 Råholt,60.2838578,11.1728733,2070 Råholt,2070,Akershus
2073 Bøn,60.2912103,11.1983858,"Bøn, 2073 Råholt",2073,Akershus
2080 Eidsvoll postkontor,60.3296221006,11.2648653743,2080 Eidsvoll,2080,Akershus
2080 Eidsvoll,60.329622101,11.264865374,2080 Eidsvoll,2080,Akershus
2092 Minnesund,60.3915023,11.2133326,2092 Minnesund (Minnesund),2092,Akershus
2100 Skarnes,60.2539143,11.6848561,2100 Skarnes (Skarnes),2100,Innlandet
2110 Slåstad,60.2796599,11.7702139,"Slåstad, 2110 Sør-Odal",2110,Innlandet
2150 Årnes,60.122332,11.4701491,2150 Årnes (Årnes),2150,Akershus
2180 Haga,59.805076,5.522666,"Haga, 5416 Rommetveit",5416,Vestland
2182 Horten,59.4101728,10.4437391861,Horten,,Vestfold
2200 Kongsvinger,60.1899109,12.2160230653,Kongsvinger,,Innlandet
2224 Austmarka,60.1003757,12.3212407,2224 Austmarka (Austmarka),2224,Innlandet
"2232 Tobøl, Stangnes",59.9720213,12.0554606,2232 Tobøl (Tobøl),2232,Innlandet
2260 Kirkenær,60.4563525,12.058381,2260 Kirkenær (Kirkenær),2260,Innlandet
2270 Flisa,60.6131745,12.0108926,2270 Flisa (Flisa),2270,Innlandet
2300 Hamar,61.0014937,11.1647964101,Hamar,,Innlandet
2350 Nes,60.762299,10.9416396,2350 Tingnes (Tingnes),2350,Innlandet
2355 Gaupen,60.8685523,10.7771443,2355 Gaupen (Gaupen),2355,Innlandet
2380 Brumunddal,60.873736185,10.95085105,2380 Brumunddal,2380,Innlandet
2390 Moelv,60.9297779,10.7000422,2390 Moelv,2390,Innlandet
2414 Kjernmoen,60.8721175178,11.5748467381,2414 Elverum,2414,Innlandet
2427 Plassen,61.1344412,12.5017141,Plassen (Plassen),,Innlandet
2432 Slettås,61.372157,11.9536162,2432 Slettås (Slettås),2432,Innlandet
2445 Femundsenden,61.9235966,11.9168832,Femundsenden (Femundsenden),,Innlandet
2480 Koppang,61.5710031,11.0499925,Koppang (Koppang),,Innlandet
2483 Rendalen,61.8918093,11.0777424,Bergset (Bergset),,Innlandet
2500 Tynset,62.294958942,10.714241635,2500 Tynset,2500,Innlandet
2544 Øversjødalen,62.2085749,11.4819772,"Øversjødalen, 2544 Tolga",2544,Innlandet
2592 Kvikne,61.5745535,9.5855817,"Kvikne, Nord-Fron",,Innlandet
2600 Lillehammer,61.1333408,10.4265855441,Lillehammer,,Innlandet
2616 Lismarka,61.0712603,10.6239399,2616 Lismarka (Lismarka),2616,Innlandet
2625 Olstad,58.8187089,8.5325871,"Olstad, 4865 Åmli",4865,Agder
2632 Venabygd,61.638087995,10.078305526,2632 Ringebu,2632,Innlandet
2634 Fåvang,61.4554298,10.1947546,2634 Fåvang (Fåvang),2634,Innlandet
2638 Fåberg,61.6716408,7.3269297,Fåberg (Fåberg),,Vestland
2640 Vinstra,61.5964906,9.7361913,2640 Vinstra,2640,Innlandet
2643 Skåbu,61.5255674,9.4093793,Skåbu (Skåbu),,Innlandet
2645 Harpefoss,61.5773469,9.861588,Harpefoss (Harpefoss),,Innlandet
2647 Hundorp,61.5552602,9.9403522,2647 Hundorp (Hundorp),2647,Innlandet
2647 Hundtorp,61.5388926738,9.9309524793,2647 Sør-Fron,2647,Innlandet
2650 Kvam,61.6649478,9.6877468,Kvam (Kvam),,Innlandet
2670 Otta,61.7712448,9.5352541,2670 Otta,2670,Innlandet
2679 Høvringen,61.8926532,9.4784412,"Høvringen, 2673 Olstadsætre",2673,Innlandet
2687 Bøverdalen,61.6941033161,8.2489460723,2687 Lom,2687,Innlandet
2700 Jevnaker,61.3931963,12.173751,"Jevnaker, Trysil",,Innlandet
2730 Lunner,60.30180928,10.570265529,2730 Lunner,2730,Akershus
2750 Gran,60.3591267,10.5728398,2750 Gran,2750,Innlandet
2760 Brandbu,60.4207532,10.5070018,2760 Brandbu (Brandbu),2760,Innlandet
2770 Jaren,60.3925694,10.5617639,2770 Jaren (Jaren),2770,Innlandet
2800 Gjøvik,60.87216165,10.5038863795,Gjøvik,,Innlandet
2814 Landåsbygda,60.83345,10.29602,"Landåsbygda, 2861 Landåsbygda",2861,
2829 Ø. Snertingdal,60.872162,10.448622,"Gjovik (Snertingdal), Innlandet",,
2830 Raufoss,60.7260799,10.6133236,2830 Raufoss,2830,Innlandet
2834 Nygard,60.732365651,10.634746578,2834 Vestre Toten,2834,Innlandet
2843 Eina,60.6286731,10.5987753,2843 Eina (Eina),2843,Innlandet
2850 Lena,60.6739717,10.8134458,2850 Lena (Lena),2850,Innlandet
2858 Kapp,60.7143314,10.8578361,2849 Kapp (Kapp),2849,Innlandet
2864 Fall,60.6717528,10.3634556,2864 Fall (Fall),2864,Innlandet
3022 Drammen,59.755354044,10.163976379,3022 Drammen,3022,Buskerud
3033 Drammen,59.718911203,10.159589948,3033 Drammen,3033,Buskerud
3060 Svelvik,59.629158454,10.388141477,3060 Drammen,3060,Buskerud
3070 Sande,59.5872896,10.2075012,3070 Sande (Sande),3070,Vestfold
3080 Holmestrand,59.4899583,10.3150445,3080 Holmestrand,3080,Vestfold
3100 Tønsberg,59.3549795,10.2820491109,Tønsberg,,Vestfold
3109 Lofts-Eik,59.289262,10.417873,"Lofts-Eik post i butikk, Veslemøys vei, 3122 Tønsberg",3122,Vestfold
"3109 LoftsEik, Tønsberg",59.30183625,10.4278344403,"Loftseik, Lofseik, Tønsberg, Vestfold",,Vestfold
3110 Tønsberg,59.267472727,10.412249915,3110 Tønsberg,3110,Vestfold
"3120 Andebu, Høyjord",59.2465859043,10.4212724173,3120 Færder,3120,Vestfold
"3140 Borgheim, Nøtterøy",59.2262739,10.407459,"Borgheim, 3140 Tandstad",3140,Vestfold
3155 Åsgårdstrand,59.3562258,10.4597499,"Åsgårdstrand, Palettveien, 3179 Åsgårdstrand",3179,Vestfold
3174 Revetal,59.3723954,10.2631011,3174 Revetal (Revetal),3174,Vestfold
3182 Horten,59.411457157,10.473559184,3182 Horten,3182,Vestfold
3250 Larvik,59.0967308,10.02192996,Larvik,,Vestfold
3268 Larvik,59.071078505,9.964799379,3268 Larvik,3268,Vestfold
3275 Svarstad,59.401584,9.9614111,3275 Svarstad (Svarstad),3275,Vestfold
3290 Stavern,58.9983397,10.0360061,3290 Stavern,3290,Vestfold
3371 Vikersund,59.9660881,9.994865,3370 Vikersund,3370,Buskerud
3410 Sylling,59.8944404,10.2841004,3410 Sylling (Sylling),3410,Buskerud
3440 Røyken,59.7467876,10.3937509,3440 Røyken (Røyken),3440,Akershus
3500 Hønefoss,59.715626,7.5764981,Hønefoss,,Telemark
3524 Nes i Ådal,60.563537,9.9878897,3524 Nes (Nes),3524,Buskerud
3570 Ål,60.65732695,8.485738472,3570 Ål,3570,Buskerud
3600 Kongsberg,59.59455005,9.6708600756,Kongsberg,,Buskerud
3660 Rjukan,59.8786976,8.5941579,3660 Rjukan,3660,Telemark
3700 Skien,59.2662883,9.5311354475,Skien,,Telemark
3716 Skien,59.223726819,9.596690639,3716 Skien,3716,Telemark
3717 Skien,59.2091003,9.607544,3717 Skien,3717,Telemark
3718 Skien,59.206922304,9.581963619,3718 Skien,3718,Telemark
3740 Lunde,59.154551879,9.633387056,3740 Skien,3740,Telemark
3750 Drangedal,59.082906458,8.942481736,3750 Drangedal,3750,Telemark
3864 Rjukan,59.7375351612,8.1121412622,3864 Vinje,3864,Telemark
3945 Eidanger,59.1171797,9.7169503,"Eidanger, Porsgrunn",3944,Telemark
4007 Stavanger,58.978842209,5.714359643,4007 Stavanger,4007,Rogaland
4230 Sand,59.4840165,6.2508666,Sand (Sand),,Rogaland
4280 Skudeneshavn,59.1497472,5.2581715,4280 Skudeneshavn,4280,Rogaland
4300 Sandnes,58.98313205,6.3946410473,Sandnes,,Rogaland
4340 Bryne,58.735525,5.6478183,4340 Bryne,4340,Rogaland
4400 Flekkefjord,58.2972667,6.6604201,4400 Flekkefjord,4400,Agder
4432 Hidra,58.232628,6.5335501667,"Hidra kirke, Reinferdalsveien, 4432 Kirkehavn",4432,Agder
4440 Tonstad,58.6645543,6.7160736,4440 Tonstad (Tonstad),4440,Agder
4443 Tjørholm,58.9310344648,6.8970674353,4443 Sirdal,4443,Agder
4448 Gyland,58.3619144,6.1563079,Gyland (Gyland),,Rogaland
4462 Hovsherad,58.5254921,6.496636,4462 Eik (Eik),4462,Rogaland
"4484 Øye, Leirvik",59.775409,5.495121,"Stord (Leirvik), Vestland",,
4500 Mandal,58.0268181,7.4534802,4514 Mandal,4514,Agder
4600 Kristiansand,58.0856276,7.9318580288,Kristiansand,,Agder
4640 Søgne,58.0953248,7.7893494,4640 Søgne (Søgne),4640,Agder
4660 Evje,58.5862731,7.8049338,Evje (Evje),,Agder
4692 Rystad,68.2773793,14.31649,8313 Rystad (Rystad),8313,Nordland
4700 Vennesla,58.2693934,7.9724792,4700 Vennesla,4700,Agder
4800 Arendal,63.678837,11.0488082,"Arendal, Levanger",7624,Trøndelag
4860 Treungen i Nissedal,59.053286,8.535658,"Nissedal, Vestfold og Telemark",,
4883 Bjorbekk,59.168925,9.3724278,Bjørbekk (Bjørbekk),,Telemark
4930 Vegårdshei,61.167717,12.167398,"Trysilvegen 4930, 2429 Trysil",2429,
"5000 Bergen, Nordnes",60.4050944,5.291811953,"Nordnes, Bergenhus, Bergen",,Vestland
5000 Bergen,60.3943055,5.3259192,Bergen,,Vestland
5030 Landås,58.4919008,7.8404775,Landås (Landås),,Agder
"5032 Minde, Bergen",60.3617475,5.3478909,"Minde allé, 5067 Bergen",5067,Vestland
5032 Minde,60.3571005,5.3422922555,"Minde, Bergen",,Vestland
5033 Fyllingsdalen,60.3470096,5.2926415082,"Fyllingsdalen, Bergen",,Vestland
5037 Solheimsvik,59.52483,6.59344,"Solheimsvik, Suldal, Rogaland",,
5042 Fjøsanger,60.3478676,5.3337607807,"Fjøsanger landskapsvernområde, Bønes, Bergen",,Vestland
5068 Flesland,60.2932079,5.2113211,"Flesland, Bergen",5258,Vestland
5070 Bergen,60.3943055,5.3259192,Bergen,,Vestland
5071 Loddefjord,60.361483,5.2331114,"Loddefjord, 5171 Bergen",5171,Vestland
5078 Haakonsvern,60.337002,5.2257352,"Haakonsvern, 5173 Bergen",5173,Vestland
5084 Tertnes,60.4579546,5.2826388,"Tertnes, Åsane, Bergen",5114,Vestland
5088 Mjølkeråen,60.4884976,5.2609353,5136 Mjølkeråen (Bergen),5136,Vestland
5090 Nyborg,64.0434361,13.9867249,Nyborg (Nyborg),,Trøndelag
5170 Modalen,60.8172485,5.8234115,"Modalen, Mo",,Vestland
5280 Dalekvam,60.589817,5.819283,"Extra Dalekvam, Konsul Jebsensgata, Dale",,Vestland
"5400 Stord, Børtveit",59.82502055,5.48837064,Stord,,Vestland
"5400 Stord, Haga",59.7809398,5.5005712,5417 Leirvik,5417,Vestland
"5400 Stord, Horneland",59.82502055,5.48837064,Stord,,Vestland
5400 Stord,59.82502055,5.48837064,Stord,,Vestland
"5400 Stord, Samfunnshuset",59.7809398,5.5005712,5417 Leirvik,5417,Vestland
"5400 Stord, Skotteberg",59.82502055,5.48837064,Stord,,Vestland
5414 Rommetveit,59.8170675,5.5229963,5414 Rommetveit (Rommetveit),5414,Vestland
5419 Fitjar,59.90274745,5.2986146997,5419 Fitjar,5419,Vestland
5450 Hamnvik,68.7793102,17.1714669,9454 Hamnvik (Hamnvik),9454,Troms
5462 Herøysund,59.9234537,5.798846,5462 Herøysund (Herøysund),5462,Vestland
5614 Ålvik,60.4312911,6.4324249,5614 Ålvik (Ålvik),5614,Vestland
5640 Eikelandsosen,60.2407343,5.7450954,5640 Eikelandsosen (Eikelandsosen),5640,Vestland
5685 Uggdalseidet,59.9974011,5.4944109,5685 Uggdalseidet (Uggdalseidet),5685,Vestland
5700 Voss,60.624539114,6.429820123,5700 Voss,5700,Vestland
5730 Ulvik i Hardanger,60.5679913498,6.928349657,5730 Ulvik,5730,Vestland
5750 Odda,60.0679248,6.5469316,5750 Odda,5750,Vestland
5770 Tyssedal,60.1163142,6.5590922,5770 Tyssedal (Tyssedal),5770,Vestland
5823 Marifjøra,61.3812697,7.3062517,"Marifjøra, Luster",6868,Vestland
5850 Balestrand,61.205387,6.529418,"Sogndal (Balestrand), Vestland",,
5960 Dalsøyra,60.9333004,5.1358678,5960 Dalsøyra (Dalsøyra),5960,Vestland
6010 Ålesund,62.4553046983,6.3609663259,6010 Ålesund,6010,Møre og Romsdal
6142 Eidså,62.1146617,5.671998,6142 Eidså (Eidså),6142,Møre og Romsdal
6170 Bjugn,62.2968237197,6.1180486498,6170 Ørsta,6170,Møre og Romsdal
6480 Batnfjordsøra,62.8933784,7.679776,6631 Batnfjordsøra (Batnfjordsøra),6631,Møre og Romsdal
6500 Kristaiansund N.,,,,,
6500 Kristiansund N,63.2168194,7.5452589965,Kristiansund,,Møre og Romsdal
6500 Kristiansund,63.2168194,7.5452589965,Kristiansund,,Møre og Romsdal
6533,63.0588054401,7.4777670076,6533 Averøy,6533,Møre og Romsdal
6570 Edøy,63.33398,8.06572,"Edøy, Nordigarden, Straumen, Møre and Romsdal",,
6600 Sunndalsøra,62.6751972,8.5632934,6600 Sunndalsøra,6600,Møre og Romsdal
6631 Batnfjordsøra,62.8933784,7.679776,6631 Batnfjordsøra (Batnfjordsøra),6631,Møre og Romsdal
6766 Kjølsdalen,61.9241971,5.6308783,6776 Kjølsdalen (Kjølsdalen),6776,Vestland
6863 Rygg,64.48498,11.87189,"Overhalla (Rygg), Trøndelag",,
6865 Breim,61.754839,6.398806,"Gloppen (Breim), Vestland",,
6965 Svanøybukt,61.497692,5.1288451,6914 Svanøybukt (Svanøybukt),6914,Vestland
7000 Trondheim,63.4304475,10.3952118,Trondheim,,Trøndelag
7030 Trondheim,63.42055597,10.397166306,7030 Trondheim,7030,Trøndelag
7084 Melhus,63.18143325,10.3081344875,Melhus,,Trøndelag
"7087 Gimse, Melhus",63.289162,10.271596,"Melhus (Melhus), Trøndelag",,
7094 Lundamo,63.1520254,10.2852658,Lundamo (Lundamo),,Trøndelag
7095 Lier,59.84531345,10.2115525306,Lier,,Buskerud
7125 Vanvikan,63.5535227,10.2211768,7125 Vanvikan (Vanvikan),7125,Trøndelag
7200 Kyrksæterøra,63.2907955,9.0888635,7200 Kyrksæterøra (Kyrksæterøra),7200,Trøndelag
7300 Orkanger,63.304819,9.8496676,7300 Orkanger,7300,Trøndelag
7340 Oppdal,62.61592243,9.601060876,7340 Oppdal,7340,Trøndelag
7350 Buvika,63.3084804,10.1738766,7350 Buvika (Buvika),7350,Trøndelag
7392 Stamman,62.8467295283,9.8513977264,7392 Rennebu,7392,Trøndelag
7490 Rognes,63.0076274,10.4522657,7295 Rognes (Rognes),7295,Trøndelag
7500 Rørvik,63.4693106665,10.9279029574,7500 Stjørdal,7500,Trøndelag
7500 Stjørdal,63.4683597,10.9239498,7500 Stjørdal,7500,Trøndelag
7525 Flornes,63.4579875,11.3529227,7525 Flornes (Flornes),7525,Trøndelag
7530 Meråker,63.427490956,11.788060348,7530 Meråker,7530,Trøndelag
7562 Hundhamaren,63.4366298282,10.5989722373,7562 Malvik,7562,Trøndelag
7570 Hell,63.4449171,10.9127178,7517 Hell (Hell),7517,Trøndelag
7600 Levanger,63.746342,11.2999563,7600 Levanger,7600,Trøndelag
7620 Skogn,63.7038577,11.1923998,7620 Skogn (Skogn),7620,Trøndelag
7650 Verdal,63.794158728,11.4829394,7650 Verdal,7650,Trøndelag
7660 Vuku,63.7458705451,12.0452333129,7660 Verdal,7660,Trøndelag
7670 Sakkshaug,63.8881443975,11.277636761,7670 Inderøy,7670,Trøndelag
7670 Sakshaug,63.8743855,11.2741767,7670 Sakshaug (Straumen),7670,Trøndelag
7700 Steinkjer,64.050737,11.4819089986,Steinkjer,,Trøndelag
7710 Sparbu,63.9190789,11.4332149,7710 Sparbu (Sparbu),7710,Trøndelag
7820 Spillum Namsos,64.4308833315,11.525469619,7820 Namsos,7820,Trøndelag
7830 Nord Statland,64.4956927,11.147007,7777 Statland (Statland),7777,Trøndelag
7850 Fosslandsosen,64.54151,11.26662,"Fosslandsosen, 7819 Fosslandsosen",7819,
7863 Overhalla,64.484425185,11.959498447,7863 Overhalla,7863,Trøndelag
7890 Namsskogan,64.967890963,13.197127473,7890 Namsskogan,7890,Trøndelag
7892 Lassemoen,64.733201947,12.8359996363,7892 Namsskogan,7892,Trøndelag
7894 Limingen,64.7061978,13.7417543,Limingen (Limingen),,Trøndelag
7940 Ottersøy,64.8727553277,11.3557950281,7940 Nærøysund,7940,Trøndelag
8000 Bodø Lufthavn,67.264386,14.3477489421,"Bodø Airport, Langstranda, 8003 Bodø - Bådåddjo",8003,Nordland
8000 Bodø,67.3094783,13.9154419971,Bodø,,Nordland
8015 Hunstad,67.2831188,14.5361602,"Hunstad, 8022 Bodø - Bådåddjo",8022,Nordland
8065 Røstlandet,67.5243052,12.114457,8064 Røstlandet (Røst),8064,Nordland
8066 Nordfold,67.762175,15.2269226,8286 Nordfold (Nordfold),8286,Nordland
8100 Misvær,67.1188306,14.999309,8100 Misvær - Medasværdda - Miedasvärrda (Misvær - Medasværdda - Miedasvärrda),8100,Nordland
8114 Tollå,66.8803856307,14.7448615471,8114 Beiarn,8114,Nordland
8150 Ørnes,66.8730775,13.7060869,8150 Ørnes (Ørnes),8150,Nordland
8180 Rødøy,66.65923,13.07771,"Rødøy, 8193 Rødøy",8193,
8186 Tjongsfjorden,66.6951903,13.4211242,8186 Tjongsfjord (Tjongsfjord),8186,Nordland
8196 Selsøyvik,66.5744917,12.9812429,8196 Selsøyvika (Selsøyvika),8196,Nordland
8200 Fauske,67.2588591,15.3945952,8200 Fauske - Fuossko,8200,Nordland
8250 Rognan,67.1014386,15.3935626,8250 Rognan - Rågno - Råggno,8250,Nordland
8270 drag,68.0447107,16.0800251,8270 Ájluokta - Drag (Ájluokta - Drag),8270,Nordland
8270 Drag,68.0447107,16.0800251,8270 Ájluokta - Drag (Ájluokta - Drag),8270,Nordland
8275 Storjord,68.193552,16.025944,"Storjord E6, 8275 Fortun",8275,Nordland
8276 Drag,68.0698387,15.9201239,"Drag E6, 8276 Hamarøy",8276,Nordland
8276 Ulvsvåg,68.1155376,15.8656124,8276 Ulsváhke - Ulvsvåg (Ulsváhke - Ulvsvåg),8276,Nordland
8280 Kjøpsvik,68.0973005,16.3786373,8590 Gásluokta - Kjøpsvik (Gásluokta - Kjøpsvik),8590,Nordland
8316 Laupstad,68.3572939,14.7232319,"Laupstad, 8316 Vågan",8316,Nordland
8333 Kleppstad,68.2558113,14.2720727,"Kleppstad, 8313 Kleppstad",8313,Nordland
8357 Valberg,68.1950105,13.9407233,"Valberg, 8357 Vestvågøy",8357,Nordland
8372 Gravdal,68.118191,13.5532976,8372 Gravdal (Gravdal),8372,Nordland
"8374 Fygle, Vestvågøy",68.1463534,13.6378846,"Fygle, Leknes",8370,Nordland
8382 Napp,68.1331694,13.4319333,8382 Napp (Napp),8382,Nordland
"8387 Fredvang, Lofoten",68.0840556,13.1666862,8387 Fredvang (Fredvang),8387,Nordland
8387 Fredvang,68.0840556,13.1666862,8387 Fredvang (Fredvang),8387,Nordland
8450 Stokmarknes,68.5670003,14.9133484,8450 Stokmarknes,8450,Nordland
8480 Andenes,69.3218204,16.1247217,8480 Andenes (Andenes),8480,Nordland
8500 Alta,69.9666046,23.2733282,Alta,,Finnmark
8500 Narvik,68.28988385,17.0865387113,Narvik,,Nordland
8501 Narvik,68.28988385,17.0865387113,Narvik,,Nordland
8530 Bjerkvik,68.5491657,17.5571481,8530 Bjerkvik - Rahkka (Bjerkvik - Rahkka),8530,Nordland
8540 Ballangen,68.329601079,16.717689431,8540 Narvik,8540,Nordland
8543 Kjeldebotnen,68.3958208315,16.6536206825,8543 Narvik,8543,Nordland
8597 Steinklep,61.277746,8.193538,"Tyinvegen 8597, 2985 Tyinkrysset",2985,Innlandet
8600 Mo i Rana,66.3110969,14.1386991,8624 Mo i Rana,8624,Nordland
8610 Grubhei,66.3171408164,14.2140645006,8610 Rana,8610,Nordland
8616 Båsmoen,66.3346909,14.1060241,"Båsmoen, 8616 Mo i Rana",8616,Nordland
8650 Mosjøen,65.8446346,13.200161,"Mosjøen, Vollanvegen, 8663 Mosjøen - Mussere",8663,Nordland
8723 Husby,66.2256711,12.7698007,8723 Husby (Husby),8723,Nordland
8890 Leirfjord,66.07190635,12.887251924,8890 Leirfjord,8890,Nordland
8960 Hommelstø,65.4073265,12.5516302,Hommelstø (Hommelstø),,Nordland
8980 Gladstad,58.6128307,8.9279966,"Gladstad, Tvedestrand",4900,Agder
9022 Krokelvdalen,69.6832329909,19.0724672274,9022 Tromsø,9022,Troms
9050 Storsteinnes,69.2408464,19.234144,9050 Storsteinnes (Storsteinnes),9050,Troms
9060 Lyngseidet,69.5762575,20.2190704,9060 Lyngseidet (Lyngseidet),9060,Troms
9092 Sørstraumen,64.482364,10.771843,Sørstraumen bru,,
9170 Longyearbyen,78.2231558,15.6463656,9170 Longyearbyen,9170,
9300 Finnsnes,69.2296016,17.9812966,9300 Finnsnes,9300,Troms
9310 Sørreisa,69.135855297,18.140261177,9310 Sørreisa,9310,Troms
9330 Rossfjordstraumen,69.36347,18.30816,"Senja (Rossfjordstraumen), Troms og Finnmark",,
9373 Botnhamn,69.5082193,17.9028281,9373 Botnhamn (Botnhamn),9373,Troms
9386 Senjahopen,69.4958812,17.4859909,9386 Senjahopen (Senjahopen),9386,Troms
9400 Harstad,68.799943,16.5440322,Harstad,,Troms
9425 Sandsøy,68.9481168881,16.6788979841,9425 Harstad,9425,Troms
9500 Alta,69.9666046,23.2733282,Alta,,Finnmark
9510 Elvebakken,69.970578235,23.286499984,9510 Alta,9510,Finnmark
"9520 Kautokeino, Camping",69.006173343,23.041872338,9520 Kautokeino,9520,Finnmark
9520 Kautokeino,69.006173343,23.041872338,9520 Kautokeino,9520,Finnmark
9540 Talvik,70.0459072,22.9584708,"Talvik, 9540 Alta",9540,Finnmark
9593 Breivikbotn,70.5886731,22.2871516,Breivikbotn (Breivikbotn),,Finnmark
9595 Sørvær,70.632223,21.9854426,9595 Sørvær (Sørvær),9595,Finnmark
9600 Hammerfest,70.6628361,23.6831069,9600 Hammerfest,9600,Finnmark
9680 Lillefjord,70.6975071,24.6561129,Lillefjord - Vuotkevuotna (Lillefjord - Vuotkevuotna),,Finnmark
9683 Lillefjord,70.6975071,24.6561129,Lillefjord - Vuotkevuotna (Lillefjord - Vuotkevuotna),,Finnmark
9701 Lakselv,69.4268439,19.6575223,"Lakselv, Tromsø",,Troms
9710 Indre Billefjord,70.3222299,25.0568951,"Indre Billefjord Vest, 9710 Billávuotna - Indre Billefjord - Pillavuono",9710,Finnmark
9800 Vadsø,70.073949255,29.758864913,9800 Vadsø,9800,Finnmark
9820 Varangerbotn,70.1727894,28.5556913,Vuonnabahta - Varangerbotn (Vuonnabahta - Varangerbotn),,Finnmark
9930 Neiden,69.733516371,29.419319617,9930 South Varanki,9930,Finnmark
9970 Mehamn,71.0389923,27.8517589,9770 Mehamn (Mehamn),9770,Finnmark
Aarnes 3810 Gvarv,59.3877705,9.1747361,3810 Gvarv (Gvarv),3810,Telemark
Abelvær,64.7295772,11.1805405,7950 Abelvær (Abelvær),7950,Trøndelag
Ådalen,59.3221972,11.5160306,Ådalen,,Østfold
Ål,60.69726555,8.503740459,Ål,,Buskerud
Ålen,62.8420377,11.2986312,7380 Ålen (Ålen),7380,Trøndelag
Ålesund,62.48023635,6.5550739403,Ålesund,,Møre og Romsdal
Alhusstrand,,,,,
Alnabru,59.9287861,10.8376972,"Alnabru, Oslo",582,
Alta,69.9666046,23.2733282,Alta,,Finnmark
Alvekleiva,,,,,
Alvheim,61.5915656,11.012808,Alvheim,,Innlandet
Åmland,58.1839079,7.0076148,Åmland (Åmland),,Agder
Åmli,58.7996897,8.3241200995,Åmli,,Agder
Ammerud,59.9638929,10.8723361,"Ammerud, Oslo",959,
Åmot,61.26117795,11.6052056089,Åmot,,Innlandet
Andebu sentrum,60.7137011,9.6260786,Andebu,,Innlandet
Andebu,59.305764,10.1757848,3158 Andebu (Andebu),3158,Vestfold
Andenes,69.3218204,16.1247217,8480 Andenes (Andenes),8480,Nordland
Angeltrøa,,,,,
Ankenesstrand,68.4192472,17.387231,"Ankenesstrand tannklinikk, Torgveien, 8520 Narvik",8520,Nordland
Arendal,58.42673005,8.9469491149,Arendal,,Agder
Aresvik,,,,,
Arna,60.4177222,5.4708944,5261 Indre Arna (Bergen),5261,Vestland
"Arnatveit, Arna",60.4078222,5.4825222,"Arnatveit, Bergen",5262,Vestland
Årvoll,59.9460119,10.8139127,"Årvoll, Oslo",590,
"Årvoll, Vivestad",60.7268372,10.6908028,"Årvoll, Vestre Toten",2817,Innlandet
Åsane,60.4724133,5.3389446006,"Åsane, Bergen",,Vestland
Åsgårdstrand,59.3491387,10.4680198,3179 Åsgårdstrand,3179,Vestfold
Asker,59.68126025,10.4748359885,Asker,,Akershus
Askim,59.5832224,11.1641908,1830 Askim,1830,Østfold
Åsvang,62.5915668,11.8095403,Åsvang (Åsvang),,Trøndelag
Atlanteren V av Azorene,59.8676431,10.4289234,"Skaugumsåsen V, Nedre Kanonvei, 1384 Tømmervika",1384,Akershus
Atlanterhavet,58.68856,7.12868,"Atlanterhavet, Kvinesdal, Agder",,
Auggedal,61.1467,10.171326,"Auggedal Grendehus, Auggedalsvegen, Gausdal",,Innlandet
Austmarka,60.1003757,12.3212407,2224 Austmarka (Austmarka),2224,Innlandet
Austnesfjorden,68.3014686,14.7235525748,"Austnesfjorden, 8316 Vågan",8316,Nordland
Avaldsnes,59.3549362,5.2785707,4262 Avaldsnes (Avaldsnes),4262,Rogaland
Bærum,59.9289639,10.4997108186,Bærum,,Akershus
Bakke i Oklungen,,,,,
Bardufoss,69.065637,18.5159237,Bardufoss,,Troms
Barkåker,59.3186085,10.3899148,"Barkåker, Tønsberg",3157,Vestfold
"Barstad, Bindal kommune",65.2625222,12.7391952,Barstad (Barstad),,Nordland
Basberg,59.2975252,10.452212,3114 Basberg (Tønsberg),3114,Vestfold
"Båsmo, Mo i Rana",66.33450335,14.1069596597,"Båsmo barneskole, Brakkebakken, 8616 Mo i Rana",8616,Nordland
Båtsfjord,70.61427605,30.3274063323,9990 Båtsfjord,9990,Finnmark
Bergen,60.3943055,5.3259192,Bergen,,Vestland
"Bergenhus, Bergen",60.407051,5.2943905956,"Bergenhus, Bergen",,Vestland
Berger,59.5448629,10.3807984,3075 Berger (Berger),3075,Buskerud
Bertnes,67.2852304,14.5766152,8028 Bertnes (Bodø - Bådåddjo),8028,Nordland
Billingstad,59.8743137,10.4906908,"Billingstad, Asker",1396,Akershus
Birkeland,58.330797,8.2320026,4760 Birkeland (Birkeland),4760,Agder
Bislet,59.9255533,10.7318943,"Bislett, Oslo",168,
Bjarkøy,68.954014,16.6997419,"Veten, Sandsøy, Bjarkøy Kommune, 9425 Harstad",9425,Troms
"Bjelland, Stord",59.77336,5.495746,"Bjelland, Kjøtteinsvegen, 5411 Leirvik",5411,Vestland
Bjorbekk,58.4397993,8.7024523,"Bjorbekk, Arendal",4824,Agder
Bjøringvann,,,,,
Bjørkelangen,59.8834497,11.5660867,1940 Bjørkelangen (Bjørkelangen),1940,Akershus
Bjørnsvik 4500 Mandal,58.0268181,7.4534802,4514 Mandal,4514,Agder
Bjugn,63.7649663,9.808629,7160 Bjugn (Bjugn),7160,Trøndelag
Blakset,61.8599076,6.5313049,6795 Blakset (Blakset),6795,Vestland
Blommenholm,59.9001582,10.5522286,"Blommenholm, Sandvika",1365,Akershus
Bodø flyplass,67.277773,14.394943,"Bodo (Bodo), Nordland",,
Bodø,67.3094783,13.9154419971,Bodø,,Nordland
Bøler,59.7263346,11.1812777,1912 Bøler (Bøler),1912,Akershus
Bollerud,59.6883268,9.847607,3322 Bollerud (Bollerud),3322,Buskerud
"Bøn, Eidsvoll",60.2922959,11.2126249,"Bønsbakken, 2073 Råholt",2073,Akershus
Bøn,60.2912103,11.1983858,"Bøn, Råholt",2073,Akershus
"Borge, Stokke",59.2343718,10.277908,"Stokke Ravei, 3160 Stokke",3160,Vestfold
Børgefjell,70.54039,22.51302,"Borgefjell, Hasvik, Troms og Finnmark",,
"Borgenhøy, Holter",,,,,
Borgenhøy,,,,,
Borgestad,63.7121583,9.7351777,"Borgestad, Ørland",7140,Trøndelag
"Borgheim, Nøtterøy",59.2294611,10.4080217,3140 Nøtterø (Tandstad),3140,Vestfold
Borre kirke,59.3823335,10.4598747643,"Borre kirke, Steinbrygga, 3184 Borre",3184,Vestfold
Bøverbru,60.6662105,10.6771824,2846 Bøverbru (Bøverbru),2846,Innlandet
Brandbu,60.4207532,10.5070018,2760 Brandbu (Brandbu),2760,Innlandet
Brandval,60.3157309,12.0181632,2219 Brandval (Brandval),2219,Innlandet
Braskereidfoss,60.7242592,11.8003898,2435 Braskereidfoss (Braskereidfoss),2435,Innlandet
Bratsberg,63.349303,10.4824396,"Bratsberg, Trondheim",,Trøndelag
Brattsberg,63.4905928,11.2568247,"Brattsberg, Stjørdal",,Trøndelag
Breidalen,59.761789,7.4921039,Breidalen,,Telemark
Bremanger,61.84810285,5.0571351826,Bremanger,,Vestland
"Brennhaug, Gudbrandsdalen",59.6727667,11.0673417,"Gudbrandsdalen, Indre Østfold",1821,Østfold
Briskebyen tettsted,60.9035,9.63872,"Etnedal (Briskebyen), Innlandet",,
Brønnøysund Flyplass,65.469115,12.216987,"Bronnoy (Bronnoysund), Nordland",,
Brønnøysund,65.4748755,12.2116394,8900 Brønnøysund,8900,Nordland
"Brøttemsmarka, Klæbu",64.08024,11.7357,"Steinkjer (Klaebu), Trøndelag",,
Brummunddal,,,,,
Brumundal,,,,,
Brumunddal,60.884916,10.9418392,Brumunddal,,Innlandet
Burkelandsfjellet,60.5259322,5.4386457,"Burkelandsfjellet, 5281 Osterøy",5281,Vestland
Buvollen,60.01788265,10.8391798378,"Buvollen, Nittedal",,Akershus
"Byneset,",63.37258575,10.1158564956,"Byneset, Trondheim, Trøndelag",,Trøndelag
Dagali,60.4114528,8.4408805,Dagali (Dagali),,Buskerud
Dagalifjell,60.369098,8.490314,"Torsetlia, Dagalivegen, Torsetlia",,Buskerud
Dal,60.2485635,11.2027904,2072 Dal (Dal),2072,Akershus
Dalen,59.4448745,8.0037607,Dalen (Dalen),,Telemark
Darbu,59.6982808,9.799116,3322 Darbu (Darbu),3322,Buskerud
Davangen,,,,,
"Djupsjøen, Røros",62.5909546,11.5504236208,"Djupsjøen, Røros, Trøndelag",,Trøndelag
Dokka,60.8347165,10.0739023,2870 Dokka,2870,Innlandet
Dovre,62.11462645,9.4403670915,Dovre,,Innlandet
Drag,64.92925,11.0789254,Drag (Drag),,Trøndelag
Drammen,59.6964936,10.17564195,Drammen,,Buskerud
Drangedal,59.09089375,8.9687835465,Drangedal,,Telemark
"Drønen, Austevoll",60.0693078,5.1825517,5394 Drøna (Drøna),5394,Vestland
"Duken, Nøtterøy",59.2294611,10.4080217,3140 Nøtterø (Tandstad),3140,Vestfold
Dypådalen seter,,,,,
E18  Kragerø - Risør,58.871972,9.403197,"Kragero (Kragero), Vestfold og Telemark",,
Eftasåsen 13,59.893524,10.853809,"Eftasåsen 20, 687 Oslo",687,
Egenes 53,58.3494548,6.9615777,"Egenes 53, 4480 Kvinesdal",4480,Agder
"Egge, Steinkjer",64.0222953,11.4638594,7725 Egge (Steinkjer),7725,Trøndelag
"Eggevammen, Steinkjer",,,,,
"Eide Gård, 6180 Sæbø",59.25,6.18333,"Hjelmeland (Saebo), Rogaland",,
Eidsvåg,62.7766194,8.0651996,6460 Eidsvåg (Eidsvåg),6460,Møre og Romsdal
Eidsvågnesset,,,,,
Eidsvågsneset,60.44541,5.28154,"Eidsvågsneset, Bergen",,
Eidsvoll,60.41629645,11.2555442497,Eidsvoll,,Akershus
Eigersund,58.40343595,5.9258202658,Eigersund,,Rogaland
Eikebygda,,,,,
Eikelandsosen,60.2407343,5.7450954,5640 Eikelandsosen (Eikelandsosen),5640,Vestland
Eiksmarka,59.946903,10.6260669,"Eiksmarka, Østerås",1359,Akershus
Eksingedalen,61.865372,10.211978,"Eksingedalen, 2477 Stor-Elvdal",2477,Innlandet
Elvebakken,68.6968222,16.9284473,Elvebakken (Elvebakken),,Troms
Elvegård,68.2563423,17.4025713,Elvegården (Elvegården),,Nordland
"Elvenes, Kolvereid",64.86042,11.56312,"Elvenes, 7970 Kolvereid",7970,
"Elvepromenaden, Trondheim",63.41247,10.41322,"Trondheim (Trondheim), Trøndelag",,
Engerdal,61.9734157,11.9400961979,Engerdal,,Innlandet
"Engrønningen, Nøtterø",59.2294611,10.4080217,3140 Nøtterø (Tandstad),3140,Vestfold
Espelifjell,60.935556,9.575833,"Valdres, Etnedal, Espelifjell, Etnedal, Innlandet",,
Espevær,59.5900345,5.1523325,5444 Espevær (Espevær),5444,Vestland
Etne,59.7985899,6.2949949557,Etne,,Vestland
Etterstadsletta,59.9092655,10.7996035,"Etterstadsletta, 0660 Oslo",660,
Fåberg,61.6716408,7.3269297,Fåberg (Fåberg),,Vestland
Fagernes,60.9860981,9.236413,2900 Fagernes,2900,Innlandet
Fagernesbroen,,,,,
Fagerstrand,59.7396833,10.5974391,1454 Fagerstrand (Fagerstrand),1454,Akershus
Fana Høgre Almenskole,60.290324,5.319252,"Fana stadion, 5239 Radal",5239,
Fantofthøyden,,,,,
Farberg,61.0916774,10.589489,"Farberg, Ringsaker",2616,Innlandet
Farstad,68.1906027,13.6622111,Farstad (Farstad),,Nordland
Farsund,58.0387373,6.5848273552,Farsund,,Agder
Faukstad,61.7108902,9.4231655,"Faukstad, Sel",2677,Innlandet
Feiring,60.4876024,11.156991,2093 Feiring (Feiring),2093,Akershus
Femunden,62.17630995,11.9000750104,"Femunden, Innlandet",,Innlandet
Fetsundbrua,,,,,
Fevik,58.3806915,8.6769086,4870 Fevik (Fevik),4870,Agder
Fiane,58.8042522,9.0773465,4993 Fiane (Fiane),4993,Agder
Fiksdal i Vestnes,62.6189428,6.852755,"Fiksdal post i butikk, Nakkedalsvegen, 6394 Fiksdalen",6394,Møre og Romsdal
"Finnbyen, Lofoten",70.49983,23.98277,"Hammerfest (Finnbyen), Troms og Finnmark",,
Fiskefelt v/Båtsfjord,59.8676431,10.4289234,"Skaugumsåsen V, Nedre Kanonvei, 1384 Tømmervika",1384,Akershus
"Fjellheim, Thingelstad",59.4175778,10.0118055,"Tingelstad, Larvik",,Vestfold
"Fjellstad, Bamble",59.0137889,9.7047861,"Fjellstad, Langesund",3961,Telemark
Fjerdingby,59.921804,11.0738113,2008 Fjerdingby (Fjerdingby),2008,Akershus
Fjørangen,,,,,
Fjøsanger,60.3467972,5.3321972,"Fjøsanger, Bergen",5230,Vestland
Flendalen i Trysil,61.328613,12.162299,"F6 Hytteheis I, Trysil",,
Flesland,60.2932079,5.2113211,"Flesland, Bergen",5258,Vestland
Flisa,60.6131745,12.0108926,2270 Flisa (Flisa),2270,Innlandet
Fløibanen,60.396408,5.330544,"Fløibanen, Bergen",,
Fløien,60.394358,5.343555,"Fløien Folkerestaurant, Fløyfjellet, 5019 Bergen",5019,Vestland
Fløyrestauranten,,,,,
Fluberg,60.7682194,10.2477333,2862 Fluberg (Fluberg),2862,Innlandet
Follebu kirke,61.22601425,10.2677059444,"Follebu kirke, Holsbakkan, 2656 Follebu",2656,Innlandet
Follestad,62.1908168,6.2392055,6156 Follestad (Follestad),6156,Møre og Romsdal
Fon,59.4124765,10.2080226,3175 Fon (Fon),3175,Vestfold
Fonåsfjellet,,,,,
Fonnes,60.8040502,4.9809917,"Fonnes, Austrheim",5953,Vestland
Forsanvatnet,67.91934,15.68374,"Forsanvatnet, Steigen, Nordland",,
"Fredheim, Nord Kisa",60.0282673,12.0908834,2235 Kisa (Kisa),2235,Innlandet
Fredrikstad,59.2133614,10.9361604,Fredrikstad,,Østfold
Frogner,60.0245768,11.1024311,2016 Frogner (Frogner),2016,Akershus
Froland,58.5872846,8.6004379851,Froland,,Agder
Frøya,64.0705003,8.8895076597,Frøya,,Trøndelag
"Fuglerud, Bøn",60.29134,11.19862,"Eidsvoll (Bon), Viken",,
Funnemark,59.31667,9.18333,"Funnemark (Nome), Vestfold og Telemark",,
Furuåsen,59.1594083,10.0594639,Furuåsen,,Vestfold
Fyllingsdalen,60.3470096,5.2926415082,"Fyllingsdalen, Bergen",,Vestland
Gamle Kyrkjeveg 2,60.3088,5.352762,"Gamle Kyrkjeveg, Apeltunvegen, 5222 Bergen",5222,Vestland
Gardermoen flyplass,60.1664345,11.1577227516,"McDonald's Gardermoen, Næringsparkvegen, 2068 Ullensaker",2068,Akershus
Garthus,60.7090983,9.7106617,Garthus (Garthus),,Innlandet
Gauldalen,62.9607963,10.826678,Gauldalen,,
Geilo,60.5337182,8.2089732,3580 Geilo (Geilo),3580,Buskerud
"Gillund Gård, Stange",60.716393,11.194283,"Stange (Stange), Innlandet",,
Gimsøyfjorden,,,,,
Giske,62.6402685,5.7211064603,Giske,,Møre og Romsdal
"Gjeien gård, Andebu",59.304034,10.179006,"Sandefjord (Andebu), Vestfold og Telemark",,
"Gjerdåker, Voss",60.6394563,6.4637522,"Gjerdåker, Rykkesvegen, 5705 Vossavangen",5705,Vestland
"Gjersø bro, Mosseveien",59.27517,10.27515,"Gjersø, Sandefjord, Vestfold og Telemark",,
Gjerstad,58.8782545,8.9797420554,Gjerstad,,Agder
Gjettum,59.9072563,10.5283887,"Gjettum, Sandvika",Gjettum,Akershus
Gjøvik,60.87216165,10.5038863795,Gjøvik,,Innlandet
Glomma,59.7795306,11.1519556,"Glomma, Enebakk",Glomma,Akershus
Godøy,62.4686687,6.0162619,6055 Godøy (Godøy),,Møre og Romsdal
Granberget,61.7456111,11.7500333,Granberget (Granberget),,Innlandet
Grand Canaria Playa del I,,,,,
"Granollers, Spania",,,,,
"Granrudmoen, Øyer",61.2422669,10.4389639,2636 Hafjell,,Innlandet
Graverdalen i Valebø,59.3129215,9.3322542,Valebø (Valebø),,Telemark
Grefsen,59.9523361,10.7866944,"Grefsen, Oslo",Grefsen,
Grensevn. - Økervn.,,,,,
Grensevn.,,,,,
Gressbakken,,,,,
Gressviksletta,,,,,
Grimstad,58.2839967,8.7128291187,Grimstad,,Agder
Griniveien,59.9475221,10.6440401,"Griniveien, 0760 Oslo",Røa,
"Grønli, Maura",60.25105,11.0426555,"Grønli, Maura",Grønli,Akershus
Grostøl v/Odda,59.2168056,6.2923002,"Grøvstøl, Rogaland",,Rogaland
"Grostølsnuten, Seljestad",59.89784,6.54955,"Grostølsnuten, Ullensvang, Vestland",,Vestland
Grue Finnskog,60.4181189,12.4035537,Grue Finnskog (Grue Finnskog),,Innlandet
"Grunnreis, Sørreisa",69.1790326,18.0668921,Grunnreisa (Grunnreisa),,Troms
"Grunnreis, Sørreisa.",69.1790326,18.0668921,Grunnreisa (Grunnreisa),,Troms
Gudbrandsdalen,59.6727667,11.0673417,"Gudbrandsdalen, Indre Østfold",Gudbrandsdalen,Østfold
Gulskagen,,,,,
Hadeland,60.00317455,10.6326022135,"Hadeland, Oslo",Hadeland,
Haga,60.056249,11.3836384,1929 Haga (Haga),,Akershus
Hagabru,,,,,
"Hagafoss, Geilo",60.5337182,8.2089732,3580 Geilo (Geilo),,Buskerud
Hagatjern,59.7286346,10.0481223185,"Hagatjern, Drammen, Buskerud",,Buskerud
"Hakvåg, 8090 Våg",67.9422,15.22451,"Hakvåg, Steigen, Nordland",,
"Halden Gård, Dagali",60.406027,8.440761,"Hol (Dagali), Viken",,
Halden,59.0680555,11.5371910022,Halden,,Østfold
Hallingdal,60.6603622,10.7875265,"Hallingdal, Østre Toten",Hallingdal,Innlandet
Halsnøy kloster,59.7975197,5.656312,5455 Halsnøy kloster (Halsnøy kloster),,Vestland
Haltug,,,,,
Hamar,61.0014937,11.1647964101,Hamar,,Innlandet
Hamburg - Costa Rica,59.6172,10.7682028,"Hamborg, Vestby",Hamborg,Akershus
"Hammerstad, Eidsvoll",60.3315613,11.2147012,"Hammerstad, Eidsvoll",Hammerstad,Akershus
Hammerstadkrysset,,,,,
Hans Hansens gt. Skien,59.20962,9.60897,"Skien (Skien), Vestfold og Telemark",,
Håøya,59.0218258,9.8235111032,"Håøya naturreservat, Porsgrunn",,Telemark
Haraldsvei,,,,,
Harstad,68.799943,16.5440322,Harstad,,Troms
"Haslemo, Flisa",60.6131745,12.0108926,2270 Flisa (Flisa),,Innlandet
Haug,68.1372172,13.5272185,8372 Haug (Haug),,Nordland
Haugesund,59.46824785,5.0827612136,Haugesund,,Rogaland
Havøysund,70.9963105,24.6609576,9690 Havøysund - Ávanuorri (Havøysund - Ávanuorri),,Finnmark
Hegra,63.4641248,11.1142474,Hegra (Hegra),,Trøndelag
Heiavann i Fet,69.9480206,23.186483,"The Rock Art of Alta, Altaveien, 9512 Alta",Hjemmeluft øvre,Finnmark
Helgelandsmoen,60.1104355,10.2294183372,"Helgelandsmoen, Furuhallveien, 3530 Hole",,Buskerud
"Helgensgt., Bergen",60.338792,5.416049,"Bergen, Vestland",,
Hellesvik i Lyssøysund,60.22150295,10.3698432457,"Kistefoss I, Kistefossveien, 3520 Jevnaker",Kistefoss,Akershus
"Hellevn, Minde",,,,,
Helsfyr Tbanest.,59.91689225,10.8086166962,"Helsfyr Atrium, Strømsveien, 0665 Oslo",Gamle Oslo,
Hemne,63.290021,9.088549,"Hemne bibliotek, Vorphaugen, 7200 Kyrksæterøra",Kjørse,Trøndelag
Hemsedal,60.9282437,8.38348693,3560 Hemsedal,,Buskerud
Henningsvatnet,64.08725,11.85422,"Henningsvatnet, Steinkjer, Trøndelag",,
Henningvann,,,,,
Henningvatnet,63.92570125,11.7037141434,"Henningvatnet, Steinkjer, Trøndelag",,Trøndelag
Henningvola,63.9322849,11.6846327,"Henningvola hytteområde, Steinkjer",,Trøndelag
Herøysundet,59.9234537,5.798846,5462 Herøysund (Herøysund),,Vestland
"Hesjevoll, Jostedalen",61.61173,7.28289,"Hesjevoll, Luster, Vestland",,
"Hessdalen, 7480 Ålen",62.84185,11.3013,"Holtalen (Ålen), Trøndelag",,
Hessdalen,62.7932904,11.1884916,"Hessdalen, Holtålen",Hessdalen,Trøndelag
"Hetlebakken, Åsane",60.471942,5.390854,"Hetlebakken snuplass, Hetlebakkvegen, 5111 Bergen",Hetlebakka,Vestland
"Hetlebakken, Nyborg",60.473308,5.332746,"Nyborg, Bergen, Vestland",Nyborg,
Hetleviksåsen,,,,,
Hildestad,61.3211569,7.2226944,6879 Hildestad (Hafslo),,Vestland
Hinningvatn,,,,,
"Hisøy, Arendal",58.4356296,8.7570361467,"Hisøy, Kolbjørnsvik, Agder",,Agder
Hisøy,58.4356296,8.7570361467,"Hisøy, Kolbjørnsvik, Agder",,Agder
Hitland,60.4882412,5.2857327,"Hitland, Bergen",Hitland,Vestland
Hjelestadskiftet,,,,,
"Hoemsetra, Eikesdal",,,,,
Hof,59.530321,10.0883162,3090 Hof (Hof),,Vestfold
"Høgstad, Jæren",59.3213381,9.6572415421,"Hogstad, Opdalsveien, Opdalen",,Telemark
Holandsvik,,,,,
Holandsvika,66.722611,13.676358,"Holandsvika, Brattland, Meløy, Nordland",Brattland,Nordland
"Holdhus, Fusa kommune",60.16225,5.593431,"Bjørnafjorden (Fusa), Vestland",,
Holmestrand,59.5591252,10.1531701991,Holmestrand,,Vestfold
Holmlia,59.8370389,10.7899889,"Holmlia, Oslo",Holmlia,
"Holmlia, Oslo",59.8370389,10.7899889,"Holmlia, Oslo",Holmlia,
Holter,60.1458281,11.0517135,2034 Holter (Holter),,Akershus
Hønefoss,60.1662082,10.255486,3510 Hønefoss,,Buskerud
Hopland,61.86779,6.3133295,6796 Hopland (Randabygda),,Vestland
Hormindal,,,,,
Hornindal,61.9743535,6.5250604,6763 Hornindal (Grodås),,Møre og Romsdal
Horten,59.4101728,10.4437391861,Horten,,Vestfold
Høvik,59.2415191,11.4806807,Høvik (Høvik),,Østfold
Hovin,63.1055604,10.2241132,7236 Hovin (Hovin),,Trøndelag
Høybråten. Oslo,59.9453932,10.9216602,"Høybråten, Oslo",Høybråten,
Høyjord kirke,59.366383,10.120818,"Høyjord kirke, Skjelbredveien, Høijord",Skjelbred,Vestfold
Høyjord,59.555275,10.1206389,"Høyjord, Holmestrand",Høyjord,Vestfold
Hullvannet (Kragerø),58.8711515,9.4144122613,"Kragerø kirke, Jøransberg, 3770 Kragerø",Biørnebyen,Telemark
Hunder - Losna,61.3840605,10.2248278,Losna (Losna),,Innlandet
Hurum,63.4400166,10.4791527,"Hurum, Trondheim",Hurum,Trøndelag
Husø,59.626383,7.8525882,"Huso, Vinje",Huso,Telemark
Husøy,59.2389718,10.4635867,3132 Husøy (Husøy),,Vestfold
Hvalsmoen,60.19173,10.2914185787,"Hvalsmoen, Ringerike, Buskerud",,Buskerud
"Hvam, Skedsmo",59.7830858,11.4626292,1960 Skedsmo (Løken),,Akershus
Hyttbakken,63.2017781,11.1345577,"Hyttbakken, Selbu",Hyttbakken,Trøndelag
Ile,59.5171998,5.7996229,Ile (Ile),,Rogaland
Ilseng,60.7751068,11.2220867,2344 Ilseng (Ilseng),,Innlandet
"Innbygda, Trysil",61.315145,12.2638609,Trysil (Trysil),,Innlandet
Ivedalsvann,,,,,
Jægervannet,,,,,
Jakobsli,63.4158236,10.493695,"Jakobsli, Trondheim",Jakobsli,Trøndelag
Jar,59.9241194,10.6180722,"Jar, Bærum",Jar,Akershus
Jaren,60.3925694,10.5617639,2770 Jaren (Jaren),,Innlandet
Jarer,,,,,
Jegerveien,58.8949953,5.7196136,"Jegerveien, 4035 Stavanger",Godeset,Rogaland
Jeløy,59.4641086,10.6444529913,"Jeløy, Moss, Østfold",,Østfold
Jevnaker,60.28255445,10.4084578565,3520 Jevnaker,,Akershus
Jørstadmoen,61.1455355,10.3848109,2625 Jørstadmoen (Jørstadmoen),,Innlandet
"Kågsund, Skjervøy",,,,,
"Kalandseid, Bergen",60.338792,5.416049,"Bergen, Vestland",,
"Kalandseidet, Bergen",60.3943055,5.3259192,Bergen,,Vestland
Kjeller flyplass,59.96985165,11.0357755028,"Kjeller Airport, Fetveien, 2007 Kjeller",Volla,Akershus
"Kjellmyra, Gjeåsen",60.65,12.03333,"Asnes (Kjellmyra), Innlandet",,
Kjellmyra,60.6464832,12.038723,2280 Kjellmyra (Kjellmyra),,Innlandet
Kjerringvik,59.0412286,10.2260649,Kjerringvik (Kjerringvik),,Vestfold
Kjøpsvik,68.0973005,16.3786373,8590 Gásluokta - Kjøpsvik (Gásluokta - Kjøpsvik),,Nordland
Kløfta,60.0740687,11.1380487,2040 Kløfta (Kløfta),,Akershus
"Klokkarstua, Hurum",63.4400166,10.4791527,"Hurum, Trondheim",Hurum,Trøndelag
"Købehavngata, Oslo 5",,,,,
Kolbotn,59.8106447,10.7999058,1410 Kolbotn (Kolbotn),,Akershus
"kollåsen, Ulset i Åsane",,,,,
Kolstad,63.8233008,11.8946594,Kolstad (Kolstad),,Trøndelag
"Komsafjellet, 9501 Alta",69.97585,23.276,"Komsafjellet, 9501 Alta",,
"Kongensgt, Trondheim",63.41247,10.41322,"Trondheim (Trondheim), Trøndelag",,
Kongsvinger,60.1899109,12.2160230653,Kongsvinger,,Innlandet
Konnerud,59.717884,10.1489244,3032 Konnerud (Konnerud),,Buskerud
"Korneset, Fanafjorden",62.17283,11.85045,"Korneset, Engerdal, Innlandet",,
"Korsnes, Storjord",62.2683574,7.3618051,"Korsnes, Fjord",Korsnes,Møre og Romsdal
Kr. sand.,59.4840165,6.2508666,Sand (Sand),,Rogaland
Kragerø,58.8696217,9.4142145,Kragerø,,Telemark
Kråkstad,63.1919421,11.1264126,Kråkstad (Kråkstad),,Trøndelag
Kristianlyst skole,58.937698,5.734768,"Kristianslyst skole, Skolevollen, 4018 Stavanger",Hillevåg,Rogaland
Kristianlyst ungdomsskole,59.821337,10.633182,"Alværn ungdomsskole, 1453 Nesodden",Alværn,Akershus
Kristiansand,58.0856276,7.9318580288,Kristiansand,,Agder
Kristiansund,63.2168194,7.5452589965,Kristiansund,,Møre og Romsdal
Krokeide,60.2271889,5.2971472,5244 Krokeide (Bergen),,Vestland
Kronåsen,,,,,
Kvaløya,67.6749889,14.6837584,"Kvaløya, Steigen, Nordland",,Nordland
Kvesjøen i Lierne,64.4939537,13.8592576209,"Kvesjøen, Lierne, Trøndelag",,Trøndelag
Kvinesdal,58.51813075,6.9539610197,Kvinesdal,,Agder
Kvinnherad,59.95317235,6.0325140504,Kvinnherad,,Vestland
Lade postkontor,69.2299015,17.9816466154,"Finnsnes Postkontor, Smørhusbakken, 9300 Finnsnes",Luneborg,Troms
Lærdalsøyri,61.0987561,7.4825328,6887 Lærdalsøyri (Lærdalsøyri),,Vestland
Laksevåg,60.3876083,5.2925722,"Laksevåg, Bergen",Laksevåg,Vestland
Lambertsetervn.,,,,,
Landås,58.4919008,7.8404775,Landås (Landås),,Agder
Landåstorget,60.36306735,5.36857027,"Landåstorget, Landås, Bergen, Vestland",Landås,Vestland
Landfalløya,59.7490961,10.1688641,"Landfalløya, Bragernes, Drammen",,Buskerud
Larkollen,59.330383,10.6702747,1560 Larkollen (Larkollen),,Østfold
Larvik,59.0967308,10.02192996,Larvik,,Vestfold
Lavangen,68.7169832,17.8162747549,9357 Lavangen,,Troms
Leikvikfjell,,,,,
Leira i Valdres,60.9712844,9.2915438,2920 Leira (Leira),,Innlandet
Leira Sentrum,60.971523,9.293082,"Leira sentrum, Kongsvegen, 2920 Leira",Sylvsmedhaugen,Innlandet
Leirsund,59.9968544,11.0874371,2015 Leirsund (Leirsund),,Akershus
Leksvik,63.6727318,10.6232322,7120 Leksvik (Leksvik),,Trøndelag
Lena v/Gjøvik,60.676485,10.81747,"Lena-Valle videregående skole, Lena, 2850 Lena",,
Lensvik,63.5130903,9.8088303,7316 Lensvik (Lensvik),,Trøndelag
Levanger,63.6964518,11.2238804405,Levanger,,Trøndelag
"Liagrenda, Ringebu",61.4385917,10.1362556,Liagrenda (Liagrenda),,Innlandet
"Lidarheim, Åsbygda",68.11827,13.65493,"Lidarheim, Vestvagoy, Nordland",,
Lier,59.84531345,10.2115525306,Lier,,Buskerud
"Lille Breivik, Askøy",60.434167,5.179677,"Askoy (Askøy), Vestland",,
Lilleakervn.,,,,,
Lillebergsvingen,59.9196704,10.7982263,"Lillebergsvingen, 0662 Oslo",Valle,
Lillehammer,61.1333408,10.4265855441,Lillehammer,,Innlandet
Lillestrøm,59.9559239,11.0491122,2003 Lillestrøm,,Akershus
Lindalsberget,59.9424778,12.2620889,"Lindalsberget, Lindalen, Eidskog, Innlandet",Lindalen,Innlandet
Lindås,60.7363494,5.1614412,5955 Lindås (Lindås),,Vestland
Linnestad i Ramnes,59.34225,10.30609,"Linnestad, Tønsberg, Vestfold og Telemark",,
Lista flystasjon,58.1092899,6.5669124,"Lista fyr, Fyrveien, 4563 Vestbygd",,Agder
Ljørdalen,61.3838076,12.684371,2425 Ljørdalen (Ljørdalen),,Innlandet
"Løberg, Skien",59.202805,9.65755,"Løbergvegen, 3719 Skien",Fedraheim,Telemark
Loddefjord,60.361483,5.2331114,"Loddefjord, Bergen",Loddefjord,Vestland
Loen,61.8720877,6.8466459,6789 Loen (Loen),,Vestland
Lofoten,68.20239195,13.6809406566,Lofoten,,
Loftseik,59.3058155,10.4285244,"Loftseik, Tønsberg",Loftseik,Vestfold
"Løken, Holter",60.1382796,11.0548177,"Løken, Holter meieri",Løken,Akershus
Løkeng,70.0996806,21.6014805,"Løkeng, Kvænangen",Løkeng,Troms
Løkken verk,63.1257479,9.7053282,7332 Løkken Verk (Løkken Verk),,Trøndelag
Løkken Verk,63.1257479,9.7053282,7332 Løkken Verk (Løkken Verk),,Trøndelag
"Lomdalen, Espeland",58.35,7.03333,"Kvinesdal (Espeland), Agder",,
Lønninghavn,,,,,
Lørenskog kirke,59.9245565,10.984786238,"Lørenskog kirke, Hammerveien, 1474 Lørenskog",Mellom-Hammer,Akershus
Lørenskog postkontor,59.9245565,10.984786238,"Lørenskog kirke, Hammerveien, 1474 Lørenskog",Mellom-Hammer,Akershus
Lørenskog,59.8970034,10.9669148238,Lørenskog,,Akershus
Løten,60.86527535,11.3728512803,Løten,,Innlandet
Løvenstad,59.936959,11.026377,"Løvenstad, Rælingen",Løvenstad,Akershus
"Ludvig Karstens vei, Oslo",59.9339071,10.9226815,"Ludvig Karstens vei, 1064 Oslo",Ellingsrud,
Luktvatn,66.0475776,13.5271953,"Luktvatn, Vefsn",Luktvatn,Nordland
"Lunden, Stokke",59.2111528,10.32185,"Lunden, Stokke",Lunden,Vestfold
Lunner,60.23506015,10.6664934222,Lunner,,Akershus
Lutvatn,,,,,
Lyngbø,60.373998,5.2657564911,"Lyngbø, Bergen",Lyngbø,Vestland
Mågerøy Fort,60.396674,5.308746,"Frederiksberg fort, Bergen",Skuteviken,Vestland
Mågerøy fort.,59.20491355,10.9012650421,"Huth fort, Fastings vei, 1678 Fredrikstad",Glombo,Østfold
Malm,64.0702638,11.2173077,7790 Malm (Malm),,Trøndelag
"Målsjøåsen, Klæbu",64.08024,11.7357,"Steinkjer (Klaebu), Trøndelag",,
Mandal,58.0268181,7.4534802,4514 Mandal,,Agder
Måndalen,62.5331365,7.445068,6386 Måndalen (Måndalen),,Møre og Romsdal
"Manglerud, Oslo",59.8963027,10.8120695,"Manglerud, Oslo",Manglerud,
Maridalen,60.5497236,10.7765508,Maridalen,,Innlandet
Maridalsvn.,59.968358,10.7662892,"Brekke/Maridalsvn Ø, Maridalsveien, 0882 Oslo",Marka,
Marøy,60.7073418,4.894182,5937 Marøy (Marøy),,Vestland
Masfjorden,60.8442382,5.4029908176,Masfjorden,,Vestland
Mathopen,60.3406417,5.2149944,"Mathopen, Bergen",Mathopen,Vestland
Mellom Hurdal og Feiring,69.5794961,30.1221696636,"Mellom-Ørretvatn, South Varanki, Finnmark",,Finnmark
Mellom Kongsberg/Drammen,59.669905,9.6471945385,"Kongsberg Kino, Nymoens torg, 3611 Kongsberg",,Buskerud
Mellom Molde og Vestnes,69.5794961,30.1221696636,"Mellom-Ørretvatn, South Varanki, Finnmark",,Finnmark
Mellom Skåbu og Bygdin,63.109382,7.788624,"Mellom, 6517 Kristiansund Municipality",Løkkemyra,Møre og Romsdal
Melsomvik,59.2246686,10.3362022,3159 Melsomvik (Melsomvik),,Vestfold
Merkedammen,59.39796235,10.0602933944,"Merkedammen, Valmestadsetra, Vestfold",,Vestfold
Minde,60.3571005,5.3422922555,"Minde, Bergen",Minde,Vestland
Mjølkeråen,60.4884976,5.2609353,5136 Mjølkeråen (Bergen),,Vestland
Mjøndalen,59.7500459,10.0122408,3050 Mjøndalen (Mjøndalen),,Buskerud
"Mofjellet, Hammeren",66.3007938,14.2483678082,"Mofjellet kraftverk, Anleggshammeren, 8610 Mofjellstua",,Nordland
Molde,62.60162565,8.1386208402,Molde,,Møre og Romsdal
"Morland, Sotra",61.2096538,7.5313712,"Morland, Årdal",Morland,Vestland
Mosheim,65.8080639,13.2532807,"Mosheim, Vefsn",Mosheim,Nordland
Mosjøen,65.8375342,13.1892098,8656 Mosjøen - Mussere,,Nordland
Moss,59.41466745,10.6596577762,Moss,,Østfold
Mosseveien,59.8771132,10.7761741,"Mosseveien, 1177 Oslo",Bekkelaget,
Mossevn. ved Gjersjøen,,,,,
Munkebotn,60.414209,5.322654,"Sandviken, Munkebotn, Amalie Skrams vei, 5035 Bergen",Skuteviken,Vestland
Munkvoll stasjon,63.6733096,10.6278932,"Stasjon, Lundaveien, 7120 Leksvik",Kroa,Trøndelag
Namdalen,69.5566921,29.9776676,Namdalen (Namdalen),,Finnmark
Namsenfjorden,64.4582529,11.4932015779,"Namsenfjorden, Trøndelag",,Trøndelag
Nannestad,60.2267034,10.940940671,Nannestad,,Akershus
Napp i Lofoten,68.018681,13.189773,"Flakstad (Sund I Lofoten), Nordland",,
Napp,68.1331694,13.4319333,8382 Napp (Napp),,Nordland
Narvik,68.28988385,17.0865387113,Narvik,,Nordland
Nebb ved Skøyen,,,,,
Nedre Eikerv. Drammen,59.7452,10.172831,"Drammen (Drammen), Viken",,
Nemabu Høyfjellstue,,,,,
Nes,60.1705037,11.4551179483,Nes,,Akershus
Nesbyen,60.5468243,9.0283416796,3540 Nesbyen,,Buskerud
"Nesgrenda, Tvedestrand",58.6272528,8.8572535,"Nesgrenda, 4934 Tvedestrand",Nes,Agder
Nesna tettsted,66.198899,13.023359,"Nesna (Nesna), Nordland",,
Nesodden,59.808313,10.6378344887,Nesodden,,Akershus
"Nesset, 7600 Levanger",63.7508991,11.2642775,"Nesset samfunnshus, Gjemblevegen, 7602 Levanger",Solstad,Trøndelag
Nesttun,60.3162644,5.35439,"Nesttun, Bergen",Nesttun,Vestland
Nestun,59.9244439,11.9854119,2233 Nestun,,Innlandet
Nevermoen,66.4071975,14.4663902,Nevermoen (Nevermoen),,Nordland
Nidarvoll,63.399006,10.405469,"Nidarvoll skole, 7031 Trondheim",,
Nord-Herøy,65.9977297,12.311941,8850 Nordre Herøy (Nordre Herøy),,Nordland
Nord-Statland,64.4956927,11.147007,7777 Statland (Statland),,Trøndelag
Nord Odal,60.4398571,11.5848757778,Nord-Odal,,Innlandet
Nordasletta - Sundland,59.741973,10.176418,"Sundland Verksted, 3018 Drammen",Strømsgodset,Buskerud
Nordengdalen,64.20012,11.42828,"Nordengdalen, Steinkjer, Trøndelag",,
Norderhov,60.1316865,10.2727222,3511 Norderhov (Norderhov),,Buskerud
Nordfjord,67.4364849,15.7217783,Nordfjord (Nordfjord),,Nordland
Nordfjordeid,61.907681,5.9891381,6770 Nordfjordeid,,Vestland
Nordgrenseter,,,,,
Nordheim,63.224281,8.2132333,Nordheim (Nordheim),,Møre og Romsdal
Nordli,65.3796667,13.6347305,Nordli (Nordli),,Nordland
Nordre hovin,59.9298039,11.1392453,"Nordre Hovin, 1900 Fetsund",Søndre Hovin,Akershus
Nordre Romeriks åsene,60.24038785,10.1427556401,"Nordre Semmentjern, Ringerike, Buskerud",,Buskerud
Nordreisa,69.52745715,21.5988636107,Nordreisa,,Troms
Nordsjø,59.22495,9.45912,"Nordsjø, Skien, Vestfold og Telemark",,
Nøsenvannet,,,,,
Nøtterøy,59.2294611,10.4080217,3140 Nøtterø (Tandstad),,Vestfold
Numedal,69.5691659,20.5911524,"Numedal, Kåfjord",Numedal,Troms
Nyborg,64.0434361,13.9867249,Nyborg (Nyborg),,Trøndelag
Nybygda,69.2654908,17.7312031,Nybygda (Nybygda),,Troms
"Nygård, Laksevåg",60.3794611,5.2320028,"Nygård, Laksevåg, Bergen",,Vestland
Nygård,68.4639412,17.6883306,Nygård (Nygård),,Nordland
Ø. Halsen,68.0598732,15.4118931,"Halsen, 8290 Langbakkan",,Nordland
"Øie, Kvinesdal",64.751077,12.348395,"Øie naturreservat, Hoylandet",Sundodden,Trøndelag
Oklungen,59.1761366,9.810355,3948 Oklungen (Porsgrunn),,Telemark
Oldedalen,61.670968,6.824054,"Stryn (Oldedalen), Vestland",,
Olden,61.8351511,6.8072075,6788 Olden (Olden),,Vestland
Onsog,,,,,
Onsøy,63.4270569,10.1810471,"Onsøy, Heimdal, Trondheim",,Trøndelag
Oppdal sentrum,62.593324,9.688246,"Oppdal (Oppdal), Trøndelag",,
Oppdal,62.53517845,9.62330412,Oppdal,,Trøndelag
Orkdal,63.2633284,9.813262493,"Orkdal prestegård, Grøtte, Fannrem, Trøndelag",Grøtte,Trøndelag
Ørsta,62.24705375,6.2859367588,Ørsta,,Møre og Romsdal
Os,62.41518575,11.4096628801,Os,,Innlandet
Oslo - Jessheim,60.141533,11.166917,"Ullensaker (Jessheim), Viken",,
Oslo 5,59.9133301,10.7389701,Oslo,,
Oslo 9,59.9133301,10.7389701,Oslo,,
Oslo vestbanestsj.,59.9251,10.799557515,"Oslo tennisarena/Oslo turn, Dronning Margretes vei, 0579 Oslo",Grünerløkka,
Oslo,59.9133301,10.7389701,Oslo,,
Østmarksetra,59.8888598,10.8606218553,"Østmarksetra, Østmarkveien, 0688 Oslo",Marka,
Østre Sumøy,58.864948,9.43969,"Østre Nessundholme, Kragerø",Nessund,Telemark
"Oterbekk, Nøtterøy",59.23333,10.4,"Faerder (Nøtterøy), Vestfold og Telemark",,
Otta,61.7712448,9.5352541,2670 Otta,,Innlandet
Otterøya,59.7244347,5.4275055,"Otterøya, Bømlo",Otterøya,Vestland
Ottestad,60.7472679,11.1364791,2312 Ottestad (Ottestad),,Innlandet
Øvre Stadionveg,66.748987,14.18253,"Øvre Bolivatnet, Meloy",,
Øvre Takelvdal,69.1127186,18.8708489,Øvre Takelvdal (Øvre Takelvdal),,Troms
Øyabakken i Sogn,66.322298,14.157211,"Rana (Mo i Rana), Nordland",,
Øyanmoen,63.4657,10.9521,"Øyanmoen, Stjordal, Trøndelag",,
Øyeren,59.7761756,11.2222117482,"Øyeren, Akershus",,Akershus
"Phoenix, Arizona",66.6241808,13.2880495,"Phoenix kafé kiosk, Jektvikveien, 8187 Jektvika",Kolvik,Nordland
Porsgrunn sentr.,59.14054,9.6561,"Porsgrunn (Porsgrunn), Vestfold og Telemark",,
Porsgrunn,59.103735,9.7363537659,Porsgrunn,,Telemark
Portugalkysten,,,,,
Pressens hus,59.9105483,10.7478254,"Pressens Hus, Skippergata, 0154 Oslo",Kvadraturen,
Puddefjordsbroen,60.3844292,5.3177555397,"Puddefjordsbroen, Fyllingsdalsveien, 5056 Bergen",Gyldenpris,Vestland
Råde,59.33168605,10.8423342616,Råde,,Østfold
Rælingen,59.89101135,11.0789878323,Rælingen,,Akershus
Rafsbotn,70.0195497,23.5327746,9538 Rafsbotn - Rässivuono (Alta),,Finnmark
Rakke,58.98235,10.0333417,"Rakke, Stavern",Rakke,Vestfold
Rakkestad,59.36031595,11.4211250799,Rakkestad,,Østfold
Ramberg,68.6332821,14.6253039,Ramberg (Ramberg),,Nordland
Rånåsfoss,60.0300793,11.3299803,"Rånåsfoss, Auli",Rånåsfoss,Akershus
Redalen,60.891625,10.6671962,Redalen (Redalen),,Innlandet
Reinvatnet i Sørreisa,69.145565,18.157305,"Sorreisa (Sørreisa), Troms og Finnmark",,
Rennebu,62.7662727,9.8873300342,Rennebu,,Trøndelag
Rensvik,63.0960446,7.816946,6521 Rensvik (Rensvik),,Møre og Romsdal
"Repparfjord, Kvalsund",70.45,24.28333,"Hammerfest (Repparfjord), Troms og Finnmark",,
Resdalsseter.,,,,,
Ridabu,60.8014356,11.1303364,2322 Ridabu (Ridabu),,Innlandet
Ringebu,61.5572191,10.3649274587,Ringebu,,Innlandet
Ringerike,60.32740625,10.0217635283,Ringerike,,Buskerud
Ringsaker,60.9850657,10.8445282385,Ringsaker,,Innlandet
Rissa,63.5842624,9.959178,Rissa (Rissa),,Trøndelag
Risvollan,63.3948812,10.4296417,"Risvollan, Trondheim",Risvollan,Trøndelag
Rjukan,59.8786976,8.5941579,3660 Rjukan,,Telemark
"Rødtvedt, Oslo",59.9532084,10.8545724,"Rødtvedt gård N, Sandåsveien, 0956 Oslo",Grorud,
Rognes,63.0076274,10.4522657,7295 Rognes (Rognes),,Trøndelag
Rollag,60.01567265,9.208074285,Rollag,,Buskerud
"Rollag, Numedal",69.5691659,20.5911524,"Numedal, Kåfjord",Numedal,Troms
Romsdalsfjorden,,,,,
Røra,63.8583693,11.4006052,Røra (Røra),,Trøndelag
Røros sentrum,62.574732,11.380198,"Roros (Roros), Trøndelag",,
Røros,62.5695151,11.660436507,Røros,,Trøndelag
Rørvik,64.8615745,11.2379128,7900 Rørvik,,Trøndelag
ROTA ved Malviklandet,,,,,
Røverdalen,,,,,
"Rudeløkka, Oslo",,,,,
"Rudsbygd, Follebu",61.23333,10.28333,"Gausdal (Follebu), Innlandet",,
"Rydningen, 7000 Tr.heim.",63.387227,10.35552,"Rydningen, Trondheim",,
"Rygge, Moss",59.3779677,10.7480223,"Rygge, Stasjonsveien, 1580 Rygge",Halmstad,Østfold
Rykene,58.4098638,8.637409,4821 Rykene (Rykene),,Agder
"Sædalen, Fana",60.349924,5.3927158649,"Sædalen skole, Nye Sædalsveien, 5099 Bergen",,Vestland
Saksehaug,,,,,
Sakshaug,63.8743855,11.2741767,7670 Sakshaug (Straumen),,Trøndelag
Saltstraumen,67.2339019,14.6257317,Saltstraumen - Stuorstrávve - Stuorrastrávve (Saltstraumen - Stuorstrávve - Stuorrastrávve),,Nordland
Saltvik,59.3834666,5.4736005,"Saltvik, Førland",Saltvik,Rogaland
Samdalen,60.3701843,5.3042552,"Samdalen, Bergen",Samdalen,Vestland
Samsjøen i Ådalen,63.087472,10.690686,"Samsjøen naturreservat, Midtre Gauldal",,
"Sandbakken, Stryn",61.906336,6.718692,"Stryn (Stryn), Vestland",,
Sandefjord,59.07990035,10.2804321686,Sandefjord,,Vestfold
Sandnes,58.98313205,6.3946410473,Sandnes,,Rogaland
Sandøysund,,,,,
Sandvika,59.8921158,10.5249914,1337 Sandvika,,Akershus
"Sandviksbroen, Drammensvn",,,,,
"Santa Ponza, Spania",59.941899,10.482188,"Santa´s Cruise, Baerum",,
Sarpsborg,59.254955,11.2297811408,Sarpsborg,,Østfold
Saupstad,68.2536972,13.6470779,Saupstad (Saupstad),,Nordland
Selbustrand,63.248871,10.9515849,"Selbustrand, Selbu",Selbustrand,Trøndelag
Seljord,59.57344535,8.5122534094,Seljord,,Telemark
Selvbyggervn. Oslo 5,,,,,
Sem,59.2821273,10.3301166,3170 Sem (Sem),,Vestfold
Sendsjøen,,,,,
Setskogen,,,,,
Siljan,59.30989905,9.6894157062,3748 Siljan,,Telemark
Sinsenkrysset,62.9944528,8.8239215,"Sinsenkrysset, Mogstad, Møre og Romsdal",,Møre og Romsdal
Sjetnhaugan,63.369096,10.396615,"Sjetnhaugan, Lykkmarka, 7081 Trondheim",Sjetnmarka,Trøndelag
Skansen brannstasj.,69.65291505,18.9642630794,"Skansen, Søndre Tollbodgate, 9008 Tromsø",Nordbyen,Troms
Skansen branstasjon,69.65291505,18.9642630794,"Skansen, Søndre Tollbodgate, 9008 Tromsø",Nordbyen,Troms
"Skardalsvann, Oppdal",62.593324,9.688246,"Oppdal (Oppdal), Trøndelag",,
Skarde,62.1607833,5.936628,"Skarde, Lauvstad",Skarde,Møre og Romsdal
Skarnes,60.2539143,11.6848561,2100 Skarnes (Skarnes),,Innlandet
Skarvevatnet,61.8334884,5.86473722,"Skarvevatnet, Gloppen, Vestland",,Vestland
Skeikampen,61.333291,10.089478,"Skeikampen fjellandsby, Gausdal",,
Ski,59.7199326,10.8382736,1424 Ski,,Akershus
Skien,59.2662883,9.5311354475,Skien,,Telemark
Skjåk,61.9349863,7.9145358029,Skjåk,,Innlandet
Skjetnemarka,,,,,
Skjetten,59.9675537,11.000441,2013 Skjetten (Skjetten),,Akershus
"Skjevstad, Tomma",60.65659,10.82255,"Vestre Skjevstad, Ostre Toten, Innlandet",,
Skjoldtun,60.3039459,5.3376707,"Spar Skjoldtun, Skjoldstølen, 5236 Bergen",Nesttun,Vestland
Skorpa,79.65862875,10.7092484427,"Skorpa fuglereservat, Svalbard",,
Skorstad,64.579588,11.189931,Skorstad (Skorstad),,Trøndelag
Skotterud,59.9857808,12.1235101,2230 Skotterud (Skotterud),,Innlandet
"Skovgård, Charlottenlund",63.4281167,10.4951917,"Skovgård, 7058 Trondheim",Charlottenlund,Trøndelag
"Skøyenmoen, Ilseng",,,,,
Skråfjord,,,,,
"Skullerud, Oslo",59.8646673,10.8402201,"Skullerud, Oslo",Skullerud,
Skurdalen,60.4686527,8.2241666,Skurdal (Skurdal),,Buskerud
Skyåsvn. i Tr.heim,69.9480206,23.186483,"The Rock Art of Alta, Altaveien, 9512 Alta",Hjemmeluft øvre,Finnmark
Slagen,59.3039116,10.4423654,3123 Slagen (Tønsberg),,Vestfold
Slåstad,60.2796599,11.7702139,"Slåstad, Sør-Odal",Slåstad,Innlandet
Slettevik,59.76608,5.16722,"Slettevik, Bomlo, Vestland",,
"Slettheia, 4620 Vågsbygd",58.123652347,7.945734574,4620 Kristiansand,,Agder
Snarum,60.0234599,9.8755676,Snarum (Snarum),,Buskerud
"Snippen, Alstadhaug",65.927725,12.463142,"Snippen, Søvikveien, 8804 Alstahaug",Søvikstranda,Nordland
Sofiesgt.,,,,,
Sognefjorden,61.177585,6.6958929336,"Sognefjorden, 6848",,
Solborgvannet,,,,,
"Solbrå, Leirsund",59.988417,11.107228,"Lillestrøm (Leirsund), Viken",,
"Sollien, Bergen",60.3696218,5.3678539,"Sollien, 5096 Bergen",Landås,Vestland
Solør,69.1212223,18.7518888,"Solør, Målselv",Solør,Troms
Solvang,63.0965401,9.2329563,Solvang (Solvang),,Trøndelag
"Sommerset, Sørfold",67.5451561,15.6590776,Sommerset,,Nordland
Søndre Aulie,60.1923507,10.7335391,"Søndre Lauvlia, 2743 Søndre Lauvlia",,Akershus
Songe,58.4736964,8.7985478,"Songe, Arendal",Songe,Agder
Sonvatnet,63.3828904,11.4299742416,"Ytre Sonvatnet, Stjørdal, Trøndelag",,Trøndelag
Sør-Gardermoen postkontor,69.564227,29.720778,"Sor-Varanger, Troms og Finnmark",,
Sør Yemen,60.224164,11.757689,"Sor-Odal, Innlandet",,
"Sørbyhaugen, Oslo",59.9374503,10.6759282,"Sørbyhaugen, 0379 Oslo",Ullern,
Sortland,68.76729605,15.3679178686,Sortland,,Nordland
Sørum,60.0059114,11.2315511,1923 Sørum (Sørum),,Akershus
Søtefjell,,,,,
Sousse,,,,,
Spareland vMoss,69.725136,30.071372,"Spareland, Prestøyveien, 9901 Kirkenes",,Finnmark
Spedalen,58.3693834,8.6116568,"Spedalen, Grimstad",Spedalen,Agder
Spydeberg,59.6152567,11.0788072,1820 Spydeberg (Spydeberg),,Østfold
St. Hanshaugen i Oslo,59.9179144,10.7375902,"St. Olavs gate, 0164 Oslo",Sentrum,
Stabekk,59.9083417,10.6015667,"Stabekk, Bærum",Stabekk,Akershus
Stampen,60.5284543,11.9759426,Stampen (Stampen),,Innlandet
Stange,60.6244351,11.3831207628,Stange,,Innlandet
"Stavanger lufthavn, Sola",58.8822239,5.6262353,"Stavanger lufthavn, Flyplassvegen, 4055 Sola",,Rogaland
Stavanger,58.9699675,5.7318101,Stavanger,,Rogaland
Stavern,58.9983397,10.0360061,3290 Stavern,,Vestfold
Stavsjø,60.8055968,10.8391555,2353 Stavsjø (Stavsjø),,Innlandet
Steinestø - Knarvik,60.546916,5.28275,"Alver (Knarvik), Vestland",,
Steinkjer,64.050737,11.4819089986,Steinkjer,,Trøndelag
"Stemalen, Tønsberg",,,,,
Stenb.Haugen,,,,,
Stjørdal,63.4627028,11.1344722991,Stjørdal,,Trøndelag
Stokke,59.2223339,10.3006809,3160 Stokke (Stokke),,Vestfold
"Storbukt, Honningsvåg",70.979242,25.975853,"Nordkapp (Honningsvåg), Troms og Finnmark",,
Stord,59.82502055,5.48837064,Stord,,Vestland
Stordalsvannet,58.64193,9.06853,"Størdalsvannet, Tvedestrand, Agder",,
"Storvågan, Kabelvåg",68.2078511,14.4540210279,"Storvåganveien, 8310 Kabelvåg",,Nordland
Stovner,59.9580238,10.9175578062,"Stovner, Oslo",Stovner,
"Stovnerbakken, Oslo 5",59.95465,10.935802,"Stovnerbakken, Høybråten, Oslo",Høybråten,
Stranda,62.1678462,6.9302136835,Stranda,,Møre og Romsdal
"Strandveien,  2300 Hamar",60.804767,11.063506,"Hamar (Hamar), Innlandet",,
"Strandveien, 2300 Hamar",60.804767,11.063506,"Hamar (Hamar), Innlandet",,
Straumen,63.3321928,8.0749565,Straumen (Straumen),,Møre og Romsdal
Straumsjøen,68.6947074,14.4658427,"Straumsjøen, Straume",Straumsjøen,Nordland
Strømsbu v/Arendal,58.4566587,8.7527469,"Strømsbu, Arendal",Strømsbu,Agder
Stryn,61.8218058,6.8029685145,Stryn,,Vestland
Sulafjellet,64.89861,10.79667,"Sulafjellet, Nærøysund, Trøndelag",,
Sulitjelma,67.1329051,16.0773781,Sulitjelma - Sulisjielmmá (Sulitjelma - Sulisjielmmá),,Nordland
Sundalen,,,,,
Sundsbarm,59.5346277,8.4648696,"Sundsbarm, Vestfold og Telemark",,Telemark
Svarstad,60.0667258,10.2109082,3530 Svarstad (Svarstad),,Buskerud
Svartebotn,59.5904246,6.3626947,"Svartebotn, 4209 Sauda",,Rogaland
Svartnes Fergestad,70.35869,31.03002,"Vardo (Svartnes), Troms og Finnmark",,
Sveio,59.61370615,5.4117567089,Sveio,,Vestland
Svensby,69.6690882,19.8048465,Svensby - Bávttit (Svensby - Bávttit),,Troms
Svindal,59.881808,11.2003979,1903 Svindal (Svindal),,Akershus
"Sylte, Vanylven",62.0514713,5.6204737,6144 Sylte (Sylte),,Møre og Romsdal
Tana,70.2823342,27.8913271535,Tana,,Finnmark
Tarva,63.8023666,9.4154843,7166 Tarva (Tarva),,Trøndelag
Tisvattnet,,,,,
Titlestad,60.2671881,5.3553888,"Titlestad, 5243 Bergen",Nordheim,Vestland
Tjeldøy,68.3881775,16.1345708,"Tjeldøy kystfort, Tjeldoddveien, Tjeldsund",Odden,Troms
Tjølling,59.0560139,10.1278611,"Tjølling prestegård, Tjøllingvollen",Tjølling prestegård,Vestfold
Tjøme,59.11097325,10.3995834946,"Tjøme, 3145 Kirkebygda",,Vestfold
Tolga,62.3718777,11.0704637125,Tolga,,Innlandet
Tollbodgt. Kr.sand,,,,,
"Tollevik, Bømlo",59.789897,5.222814,"Bomlo, Vestland",,
Tolvsrød v/Tønsberg,59.272637,10.463211,"Meny Tolvsrød, Vidars vei, 3151 Tønsberg",Gauterød,Vestfold
Tolvsrød,59.2724442,10.471709,"Tolvsrød, Tønsberg",Tolvsrød,Vestfold
"Tomtehaugen, Råholt",60.269596,11.186613,"Eidsvoll (Råholt), Viken",,
Tønsberg,59.3549795,10.2820491109,Tønsberg,,Vestfold
Tonstad,58.6645543,6.7160736,4440 Tonstad (Tonstad),,Agder
Tørberget,61.1348765,12.1062924,2429 Tørberget (Tørberget),,Innlandet
Torvik,59.8079708,10.6893814,1459 Torvik (Torvik),,Akershus
Tovik,68.6801321,16.8689711,9445 Tovika (Tovika),,Troms
"Tøyen, Oslo 5",59.9169677,10.7691028,"Tøyen, Oslo",Tøyen,
Trandumskogen,60.2189241,11.1179757,"Henrettede i Trandumskogen, Trandumvegen, 2058 Ullensaker",Melby,Akershus
Tretten i Gudbrandsdalen,59.6727667,11.0673417,"Gudbrandsdalen, Indre Østfold",Gudbrandsdalen,Østfold
Tretten,69.7994332,21.1236767,Tretten (Tretten),,Troms
"Trollia, Eidsvågneset",60.4449402,5.2823801,"Eidsvågneset, Bergen",Eidsvågneset,Vestland
Tromøy,58.47206285,8.8663742213,"Tromøya, 4812 Brekka",,Agder
Tromøya,58.47206285,8.8663742213,"Tromøya, 4812 Brekka",,Agder
Tromsø,69.6516345,18.9558585,Tromsø,,Troms
Trondheim,63.4304475,10.3952118,Trondheim,,Trøndelag
"Tronstad, Innhavet",67.9633674,15.9307907,Strávnjunnje - Innhavet (Strávnjunnje - Innhavet),,Nordland
Trygve Nilsensvei Oslo 10,59.974453,10.735045,"Oslo (Oslo), Oslo",,
Trysil,61.3561472,12.3670259604,Trysil,,Innlandet
Tunsjøen,59.838967,11.362578,"Tunsjøen, Hølandsveien, Aurskog-Høland",Frogner,Akershus
Tuv,60.8792476,8.4852637,Tuv (Tuv),,Buskerud
Tveita,59.5687109,5.4141132,Tveita (Tveita),,Vestland
"Tvetenveien, Oslo",59.9300768,10.8644918,"Tvetenveien, 0675 Oslo",Alna,
Tydal,62.97014335,11.8211461282,7590 Tydal,,Trøndelag
Tynset,62.36010705,10.5322493644,Tynset,,Innlandet
Tyrifjord,60.051481,10.262718,"Tyrifjord golfklubb, Hole, Viken",,
Tyristrand,60.0854616,10.0971643,3533 Tyristrand (Tyristrand),,Buskerud
"Ullern, Sør-Odal",60.2120856,11.6347146,"Ullern, Disenå",,Innlandet
Ulnes,60.9956599,9.1148552,"Ulnes, Nord-Aurdal",Ulnes,Innlandet
Ulset,63.033184,8.0115968,6674 Ulset (Ulset),,Møre og Romsdal
"Ulsetåsen, Åsane",60.4616757,5.3108174,"Ulsetåsen, 5119 Bergen",Åsane,Vestland
Ulsrudvannet,59.88804,10.863248,"Ulsrudvannet, Oslo",Bøler,
Ulstein,62.36378075,5.8286360344,Ulstein,,
Ulsteinvik,62.3426629,5.84686,6065 Ulsteinvik,,6065
Ulvsvåg,68.1155376,15.8656124,8276 Ulsváhke - Ulvsvåg (Ulsváhke - Ulvsvåg),,8276
"Undrumsdal, Våle",59.4202823,10.2765941,3178 Våle (Våle),,3178
Utenfor Tjøme,59.123974,10.419396,"Faerder (Tjome), Vestfold og Telemark",Vestfold og Telemark,
Utøy,57.9843528,7.59285,"Udøy, Lindesnes",,4516
Utvik,61.806331,6.5191967,6797 Utvik (Utvik),,6797
v/Mandal,58.0268181,7.4534802,4514 Mandal,,4514
Vadmyra,60.3614844,5.230601851,"Vadmyra, Bergen",,5172
"Vadmyrvn, Loddefjord",60.37083,5.23444,"Loddefjord, Bergen, Vestland",Vestland,
Vadsø,70.22671985,29.7828009328,Vadsø,,
"Vågen, 7633 Frosta",63.5854498,10.806727,7633 Vågen (Vågen),,7633
Vågsbygd,58.1214505,7.9417977,"Vågsbygd, Kristiansand",,4622
Vaksdal,60.6734959,5.767017366,Vaksdal,,
Valdres,60.5147476,11.1744511,"Valdres, Eidsvoll",,2093
Våle,59.4202823,10.2765941,3178 Våle (Våle),,3178
Valle i Bamle,58.941737,9.540118,"Valle, Bamble, Vestfold og Telemark",Vestfold og Telemark,
Valle i Setesdal,59.21259,7.53559,"Valle (Valle), Agder",Agder,
Vallø,60.7611889,8.0893416,Vallo,,
"Valmen, 2460 Osen",61.29992,11.76395,2460 Amot (Osen),Innlandet,2460
Valnes i Salten,,,,,
Vang kirke,60.8024224,11.1326124914,"Vang kirke, Vangsvegen, 2322 Ridabu",,2322
Vang,61.19220855,8.4695189258,Vang,,
Vanvikan,63.5535227,10.2211768,7125 Vanvikan (Vanvikan),,7125
Vardenlia,59.1246653,10.2583959,"Vardenlia, 3227 Sandefjord",,3227
Vassdal,66.1846581,13.309527,Vassdal (Vassdal),,
"Vassdalsvik, Meløy",66.8077958,13.56632085,"Vassdalsvik, Meløy, Nordland",,
Vatnali Fjellstue,61.471877,9.44989,"Ruten Fjellstue, Sor-Fron",Innlandet,
Ved Hessdalen,62.7906663,11.1811975776,"Hessdalen kirke, Hessdalsvegen, Engesvollen",Trøndelag,
Vefsn,65.82074705,13.1786355574,Vefsn,,
Veggli i Numedal,60.04093,9.15642,"Rollag (Veggli), Viken",Viken,
Veitvedt,,,,,
Vennesla,58.33986185,7.7707902821,Vennesla,,
Vesleheim Ranheim,,,,,
Vest-Torpa,60.9217876,10.07124,"Vest-Torpa, Nordre Land",,
Vestby,59.55985625,10.7118653453,Vestby,,
Vesterålen,68.7531551,14.6785866,"Vesterålen, Bø, Nordland",,
Vestfossen,59.7336724,9.8673197,3320 Vestfossen (Vestfossen),,3320
"Vestlandsheimen, Arna",60.4945,5.37805,"Vestlandsheimen, Bergen, Vestland",Vestland,
"Vestli, Oslo",59.971412,10.927555,"Vestli, Oslo",,969
Vestnes i Romsdal,62.619395,7.090291,"Vestnes (Vestnes), Møre and Romsdal",Møre and Romsdal,
Vestnes,62.56819005,7.1106077416,Vestnes,,
Vestra Lomtjern,68.3430111,16.3111139,"Lomtjern, Narvik",,
Vestre Gausdal,61.2862475,9.9860227,"Vestre Gausdal, Innlandet",,
"Vestskogen, Nøtterøy",59.2429541,10.3951268292,"Hundremeterskogen barnehage, Nøtterøy, Lerkeveien, 3142 Tandstad",,3142
Vik 4890 Grimstad,58.3662189,8.6250393,"Vik, 4885 Grimstad",,4885
Vik,61.03496635,6.5941050586,Vik,,
"Vingesjøvn., Kongsvinger",60.191611,12.000846,"Kongsvinger (Kongsvinger), Innlandet",Innlandet,
Vingrom,61.0461223,10.4296109,Vingrom (Vingrom),,
Vinje,59.80713825,7.7137703196,Vinje,,
"Vinjervn., Tønsberg",59.384445,10.272586,"Tønsberg, Vestfold og Telemark",Vestfold og Telemark,
Vinstra,61.5964906,9.7361913,2640 Vinstra,,2640
Vivelstad kirke,63.4298885,10.376308,"Ilen kirke, Kongens gate, 7017 Trondheim",Trøndelag,7017
Vivestadåsen,59.436,10.178073,"Vivestadåsen, Tønsberg",,
"Voldstad, 9056 Mortenhals",69.4002132,18.5963375,"Mortenhals, 9056 Sand",,9056
"Vollan, Nordli",62.9037833,11.2170048,"Vollan, Trøndelag",Trøndelag,
Vrangsvann i Nissedal,58.34361,6.28121,"Sokndal (Hauge i Dalane), Rogaland",Rogaland,
Waatvik,,,,,
Yri,61.7226706,6.793149,6791 Yri (Yri),,6791
Yrkje,59.398956,5.666442,"Yrkjesvegen, Tysvær",,
Ytre Arna,60.4587056,5.4390805,5265 Ytre Arna (Bergen),,5265
Ytre Laksevåg,60.38672,5.29799,"Laksevåg, Bergen, Vestland",Vestland,
Ytteråsen,63.4032615,11.181246,Ytteråsen (Ytteråsen),,
